{
"type": "FeatureCollection",
"name": "reservoir",
"crs": { "type": "name", "properties": { "name": "urn:ogc:def:crs:OGC:1.3:CRS84" } },
"features": [
{ "type": "Feature", "properties": { "name": "Quabbin Reservoir" }, "geometry": { "type": "Polygon", "coordinates": [ [ [ -72.320947177988771, 42.356966900958625 ], [ -72.321131950373811, 42.357208078382698 ], [ -72.323565898186757, 42.358598501259301 ], [ -72.323225797961086, 42.358984889196194 ], [ -72.323582559233245, 42.359878224856587 ], [ -72.324105215802291, 42.360258433619812 ], [ -72.324792089349188, 42.359997541036464 ], [ -72.325328111635642, 42.361401522590121 ], [ -72.325167241530849, 42.362298566598483 ], [ -72.324299447278378, 42.361920836874283 ], [ -72.324463664630485, 42.361279738588152 ], [ -72.323945998170231, 42.361283448444823 ], [ -72.324136893928127, 42.362689907088459 ], [ -72.323448322496063, 42.362822823344331 ], [ -72.32345332035942, 42.363206740104388 ], [ -72.32518894440561, 42.363962205523237 ], [ -72.325207309268222, 42.365369899509169 ], [ -72.324331133702827, 42.364352309383307 ], [ -72.32242793906201, 42.363981981898114 ], [ -72.320921376959205, 42.367576298878113 ], [ -72.321301418634405, 42.370261249382963 ], [ -72.320800286304944, 42.371544665638822 ], [ -72.321178685033175, 42.374101642163616 ], [ -72.32071239530535, 42.378072466573713 ], [ -72.321427734586209, 42.379987116273917 ], [ -72.32264929872413, 42.38100225685757 ], [ -72.321987140287789, 42.383182711139092 ], [ -72.322618192581729, 42.391881075543175 ], [ -72.322274578847114, 42.3920115149079 ], [ -72.322462200691675, 42.393162023677853 ], [ -72.321783274140202, 42.394062757251113 ], [ -72.322513811111861, 42.39712913473533 ], [ -72.321323525446203, 42.39854545075584 ], [ -72.321514475377086, 42.399951901710111 ], [ -72.320830477461129, 42.400468714708182 ], [ -72.32051006724889, 42.402390744741425 ], [ -72.320171373109545, 42.402905090879038 ], [ -72.319653365535032, 42.402908781379992 ], [ -72.319284807105149, 42.401119644126503 ], [ -72.318765156635408, 42.400995359438369 ], [ -72.317710963858516, 42.399595041832605 ], [ -72.31787203466493, 42.398698015942564 ], [ -72.318386694553965, 42.398438390893951 ], [ -72.318355219660248, 42.396006935784889 ], [ -72.317646412272936, 42.394604159761407 ], [ -72.316781526100783, 42.394482318947539 ], [ -72.316299938152213, 42.397301364810659 ], [ -72.317012053626172, 42.398960090825184 ], [ -72.315836473960843, 42.401528090537525 ], [ -72.316037222815041, 42.403702376631252 ], [ -72.316749403504375, 42.405361101764647 ], [ -72.317619404263496, 42.405866855738012 ], [ -72.317277358779648, 42.406125250815954 ], [ -72.317468241580329, 42.407531705959983 ], [ -72.319042276585776, 42.409056308704244 ], [ -72.31766078831815, 42.409066131291766 ], [ -72.317693898578213, 42.411625549967333 ], [ -72.318409526165084, 42.413540203375938 ], [ -72.317755159628845, 42.416360470357034 ], [ -72.317776685960908, 42.418024089747512 ], [ -72.318122107016123, 42.41802163531257 ], [ -72.317632121007378, 42.420200817884293 ], [ -72.317832990956873, 42.422375091128828 ], [ -72.316966069976118, 42.422125281942698 ], [ -72.316957798153481, 42.421485428986379 ], [ -72.315748757921767, 42.421494002738747 ], [ -72.314556212213574, 42.42278226994803 ], [ -72.314567759007005, 42.423678064018382 ], [ -72.315097491588588, 42.424570190248446 ], [ -72.316828084354199, 42.424813888930736 ], [ -72.31718181700225, 42.425451289770201 ], [ -72.318042157848083, 42.425189215279417 ], [ -72.318047127800199, 42.425573126673108 ], [ -72.318912441934728, 42.425694957068742 ], [ -72.318743026600572, 42.425952126480666 ], [ -72.319611666950934, 42.426329892467578 ], [ -72.320644742143671, 42.426066568745846 ], [ -72.320822461481612, 42.426449248549098 ], [ -72.322033260585926, 42.426568591893684 ], [ -72.321171254492725, 42.42670272574447 ], [ -72.322225976180619, 42.428103002543338 ], [ -72.321231127473155, 42.431309656754578 ], [ -72.32230924410851, 42.434501513465243 ], [ -72.322521982584647, 42.437571561168653 ], [ -72.322179785509718, 42.437829968830343 ], [ -72.322173124152741, 42.437318088741407 ], [ -72.321475415686308, 42.436811140668709 ], [ -72.320982073703746, 42.438734387508056 ], [ -72.322573633037678, 42.441538629745935 ], [ -72.322058639245384, 42.441798270812129 ], [ -72.322234745823522, 42.442052977073971 ], [ -72.32154031288232, 42.441801969771987 ], [ -72.320859187665931, 42.442574717458889 ], [ -72.321038617918475, 42.443085365241529 ], [ -72.320515294576524, 42.44270514997725 ], [ -72.320528591668875, 42.443728908913627 ], [ -72.321736392173179, 42.443592315171962 ], [ -72.321914167426499, 42.443974991637731 ], [ -72.321748044583714, 42.444488103934297 ], [ -72.320884130465444, 42.444494265237118 ], [ -72.32089078213464, 42.445006144488673 ], [ -72.321405806877593, 42.444746508852361 ], [ -72.321927487455724, 42.444998750088658 ], [ -72.320581784348221, 42.447823942030496 ], [ -72.320595083595649, 42.448847699650962 ], [ -72.320980590220401, 42.451916507934627 ], [ -72.321507321422033, 42.452552659324027 ], [ -72.322600814713425, 42.456896221314395 ], [ -72.322456327044605, 42.459072934568979 ], [ -72.32141606203713, 42.458824395006012 ], [ -72.322122342221959, 42.459971187220461 ], [ -72.321966172099351, 42.46125211342023 ], [ -72.322680824501973, 42.463038747591057 ], [ -72.321662137793965, 42.464453809811616 ], [ -72.320967460811175, 42.46420280047235 ], [ -72.320114909978585, 42.465104740156562 ], [ -72.319962009666853, 42.466641600203168 ], [ -72.319268975583171, 42.466518549886935 ], [ -72.319104431836379, 42.467159624561383 ], [ -72.319456764032424, 42.467669042573789 ], [ -72.318939884748801, 42.467800698895516 ], [ -72.317548827568118, 42.467170674477295 ], [ -72.316687912735247, 42.467432742530967 ], [ -72.317555454590831, 42.467682550986808 ], [ -72.316867379887597, 42.467943393606362 ], [ -72.316217343137339, 42.471147520777002 ], [ -72.314651734269361, 42.470390717344024 ], [ -72.31414307233257, 42.471162197336469 ], [ -72.31310428872878, 42.47104155254187 ], [ -72.312426037853072, 42.472070182716926 ], [ -72.311390531368133, 42.472205460595077 ], [ -72.311383953845066, 42.471693584327156 ], [ -72.310690881034915, 42.471570482568993 ], [ -72.310853878416594, 42.470801451529951 ], [ -72.310506525804016, 42.470675915003838 ], [ -72.309994527836508, 42.471191438422643 ], [ -72.31052623703701, 42.472211544156657 ], [ -72.310006018769911, 42.472087222101521 ], [ -72.309847931597744, 42.473240158844497 ], [ -72.309154844807111, 42.473117047895549 ], [ -72.30935231049888, 42.475035369149261 ], [ -72.310221569891141, 42.475413201324798 ], [ -72.310065120149005, 42.476694106303881 ], [ -72.310590305165846, 42.477202334677187 ], [ -72.310601805645703, 42.478098116904931 ], [ -72.311122074610864, 42.478222436076642 ], [ -72.310779610567636, 42.47848080719745 ], [ -72.310814121742439, 42.481168152302921 ], [ -72.310295471514593, 42.481171800614909 ], [ -72.310130798463717, 42.481812860042815 ], [ -72.309440898391856, 42.481945688603808 ], [ -72.308767388761268, 42.483358200500959 ], [ -72.308982913109816, 42.486684172297963 ], [ -72.309867105923686, 42.488213723213967 ], [ -72.308490439742968, 42.488735309705085 ], [ -72.308310981243835, 42.48822464833826 ], [ -72.307617732938539, 42.488101528623687 ], [ -72.307115386985643, 42.489384848228902 ], [ -72.308329005902962, 42.489632302335998 ], [ -72.309185337067817, 42.488986392682634 ], [ -72.310056429699657, 42.489492193246342 ], [ -72.309018992318286, 42.489499480698875 ], [ -72.3088526448647, 42.490012568405781 ], [ -72.309032112828334, 42.490523228689057 ], [ -72.309550839960423, 42.490519586072033 ], [ -72.309209943231451, 42.490905920160337 ], [ -72.310079420312007, 42.49128375184366 ], [ -72.309748372124176, 42.492437897935751 ], [ -72.310263829674696, 42.492178315289301 ], [ -72.310446601240002, 42.492944909851303 ], [ -72.310108981588314, 42.493587183076031 ], [ -72.309751655321733, 42.492693834740351 ], [ -72.309590229280062, 42.49359082820218 ], [ -72.310461388696851, 42.494096625091345 ], [ -72.310291755352409, 42.494353777598334 ], [ -72.310981789247066, 42.494220944375698 ], [ -72.310645811690463, 42.494991187261171 ], [ -72.311360525658841, 42.49677787598317 ], [ -72.311022894804736, 42.497420151233278 ], [ -72.312073633623953, 42.498436591258468 ], [ -72.311381910876833, 42.498441462691524 ], [ -72.311385201010438, 42.498697399042598 ], [ -72.312427730858701, 42.499073994757289 ], [ -72.31244255590174, 42.500225707871053 ], [ -72.313310531692665, 42.500475546152551 ], [ -72.313147487610451, 42.501244574689302 ], [ -72.314547509678448, 42.502514486665952 ], [ -72.314382824130391, 42.503155548559896 ], [ -72.315448593642287, 42.505323667561044 ], [ -72.315280603593806, 42.505708794517396 ], [ -72.314760099850659, 42.505584495022688 ], [ -72.315290522642954, 42.506476601693869 ], [ -72.314954532428516, 42.507246854623212 ], [ -72.315825923343027, 42.507752609124879 ], [ -72.315321934557531, 42.508907990036661 ], [ -72.314119473682808, 42.509556385266308 ], [ -72.314485215590508, 42.511089554608787 ], [ -72.313785103021004, 42.510454601881364 ], [ -72.313753749545768, 42.508023214130979 ], [ -72.314610274732658, 42.507377267327676 ], [ -72.31374714912198, 42.507511342822021 ], [ -72.313569244415689, 42.507128660041786 ], [ -72.312884019843992, 42.507645411849246 ], [ -72.311987956250292, 42.505220116494812 ], [ -72.311964906385427, 42.503428564905029 ], [ -72.310559985534198, 42.501774717657774 ], [ -72.309873152349979, 42.502163484246338 ], [ -72.310049378184615, 42.502418205177541 ], [ -72.309178107209704, 42.50191240629173 ], [ -72.309183029286586, 42.502296310551152 ], [ -72.308494542628267, 42.502557100802491 ], [ -72.308313405863203, 42.501918473208093 ], [ -72.306743857043017, 42.500905632155977 ], [ -72.305706231678656, 42.50091288976688 ], [ -72.305874267382634, 42.500527776271767 ], [ -72.305352192007405, 42.500275465933569 ], [ -72.304836648130276, 42.500535026055637 ], [ -72.305003055962402, 42.500021945574808 ], [ -72.303276961440588, 42.500289946762884 ], [ -72.302428551314051, 42.5015756516366 ], [ -72.302746760444492, 42.499397783350098 ], [ -72.303790880018866, 42.499902425363814 ], [ -72.30410740341506, 42.49759658403736 ], [ -72.303559292593832, 42.495296771694349 ], [ -72.302503862288134, 42.493896347852477 ], [ -72.30267027158051, 42.493383269836023 ], [ -72.301441979793367, 42.491984039703851 ], [ -72.298365148218608, 42.494820949162929 ], [ -72.298386190272112, 42.496484539126364 ], [ -72.297718747507062, 42.498408854529188 ], [ -72.297912709145805, 42.50007124602481 ], [ -72.297046415910444, 42.499949260108558 ], [ -72.29671023780557, 42.500719461190819 ], [ -72.298284476744612, 42.502116343646954 ], [ -72.298310375190653, 42.504163834925912 ], [ -72.299517759130509, 42.503899508168395 ], [ -72.299695569531167, 42.504282212959112 ], [ -72.298486559942177, 42.504418573395554 ], [ -72.297806094419258, 42.505319140351581 ], [ -72.296770011082586, 42.505454285647957 ], [ -72.297471514035166, 42.50621731065791 ], [ -72.298505989244788, 42.505954190980788 ], [ -72.298169796965411, 42.506724395083793 ], [ -72.29905076785127, 42.507998084765404 ], [ -72.298539992799604, 42.508641520225595 ], [ -72.299238311138808, 42.509148597849162 ], [ -72.299249656304042, 42.510044373639808 ], [ -72.298383223580004, 42.509922398096521 ], [ -72.297524880491139, 42.510440255918802 ], [ -72.297188652338193, 42.511210456231645 ], [ -72.298229685441072, 42.511459211161643 ], [ -72.298407509330971, 42.511841917161988 ], [ -72.297022151467672, 42.511723523890531 ], [ -72.296679447894448, 42.511981850810841 ], [ -72.296352890945883, 42.51351985566923 ], [ -72.297051245695272, 42.514026945873432 ], [ -72.297916114040063, 42.514020963458051 ], [ -72.296714992650337, 42.514797144058868 ], [ -72.297240387262477, 42.515305428141858 ], [ -72.299316113025867, 42.515291056044966 ], [ -72.299826933987589, 42.514647618300231 ], [ -72.299644228574309, 42.513881011349774 ], [ -72.300685315413816, 42.514129743926794 ], [ -72.301026389790323, 42.513743437449506 ], [ -72.301209111596577, 42.514510042238086 ], [ -72.303118350316964, 42.515008674694251 ], [ -72.300523705659131, 42.515026719544025 ], [ -72.300011266283491, 42.515542192558136 ], [ -72.302432954596426, 42.515525363280304 ], [ -72.303475709035823, 42.515902038259327 ], [ -72.303309246905982, 42.516415114345655 ], [ -72.304174147387528, 42.516409084990315 ], [ -72.304179040150984, 42.516792987965317 ], [ -72.296744077082494, 42.517100564203382 ], [ -72.294980397616939, 42.514425180809774 ], [ -72.295145309679668, 42.513784148593366 ], [ -72.294621556067625, 42.513403822660003 ], [ -72.294949766700114, 42.51199379060742 ], [ -72.294595773514672, 42.511356335635341 ], [ -72.295113060313966, 42.511224790044125 ], [ -72.295104998381248, 42.510584950129243 ], [ -72.29285163868515, 42.51021653200857 ], [ -72.294397031831139, 42.50931003945788 ], [ -72.294043059282799, 42.508672582327861 ], [ -72.293178263868867, 42.508678535698799 ], [ -72.293175047052827, 42.50842259951667 ], [ -72.294385755677027, 42.508414263014203 ], [ -72.29471716861373, 42.507260165974792 ], [ -72.293682656201668, 42.507523251559867 ], [ -72.292106778074455, 42.505998340087849 ], [ -72.291776929561934, 42.507280398169691 ], [ -72.290908945456692, 42.507030398202744 ], [ -72.291264481645044, 42.507795833382559 ], [ -72.291956308456889, 42.507791082688577 ], [ -72.291962732165558, 42.508302955189976 ], [ -72.292656171830302, 42.50842616841112 ], [ -72.291967550015457, 42.508686859519585 ], [ -72.292318288304514, 42.509068386858083 ], [ -72.292323108375811, 42.509452291093822 ], [ -72.291805830290315, 42.509583824229665 ], [ -72.291986822001192, 42.510222476439608 ], [ -72.290947437835086, 42.510101633127029 ], [ -72.290780889148252, 42.51061469192431 ], [ -72.291841156268021, 42.512399120797994 ], [ -72.291677819743185, 42.513168116482682 ], [ -72.293079282604438, 42.514566252996921 ], [ -72.294149344594146, 42.51711846559423 ], [ -72.290862681332797, 42.517141056863714 ], [ -72.289453205198484, 42.515103054853377 ], [ -72.288934274833863, 42.515106606989875 ], [ -72.288050212614266, 42.513576906480154 ], [ -72.287355128615559, 42.513325697719928 ], [ -72.287347145075245, 42.51268585762795 ], [ -72.286487078877556, 42.513075664867273 ], [ -72.286648883151059, 42.512178708464106 ], [ -72.28750414516189, 42.511404995728633 ], [ -72.28749296647571, 42.510509219118902 ], [ -72.288686123010876, 42.509093293078429 ], [ -72.288666931684531, 42.507557675141484 ], [ -72.286897478973941, 42.504370288075833 ], [ -72.286524472310816, 42.502197186578542 ], [ -72.285126613081985, 42.501054902676984 ], [ -72.285293182504873, 42.500541850735196 ], [ -72.28372721542047, 42.499784632956718 ], [ -72.283384522261628, 42.500042921180771 ], [ -72.28374628419904, 42.501320254907156 ], [ -72.282553163791206, 42.502736132770281 ], [ -72.282031163398258, 42.502483716964598 ], [ -72.2823675300248, 42.501713559066744 ], [ -72.281847124087989, 42.501589110840314 ], [ -72.282870477264467, 42.500430351573272 ], [ -72.282849842837479, 42.498766760547497 ], [ -72.281985182097159, 42.498772629969508 ], [ -72.281991524024122, 42.499284504256899 ], [ -72.281128439856317, 42.499418335812038 ], [ -72.280769907775152, 42.49839693045292 ], [ -72.27990367066856, 42.49827481564909 ], [ -72.27973548251245, 42.4986598914981 ], [ -72.278528115990923, 42.498924011420499 ], [ -72.278193295186512, 42.499822127285498 ], [ -72.278515488486235, 42.497900262297371 ], [ -72.27920404817192, 42.4976396507939 ], [ -72.279192989715185, 42.496743870085766 ], [ -72.280211567682471, 42.495201226731311 ], [ -72.280662278914619, 42.48969505489039 ], [ -72.279597968038559, 42.48752660547953 ], [ -72.278203713967528, 42.486640171250009 ], [ -72.278194249088799, 42.485872356918364 ], [ -72.277673981961456, 42.485747889330533 ], [ -72.277144264929291, 42.484855604767638 ], [ -72.277461686076876, 42.482549827581927 ], [ -72.277104884252552, 42.481656375508337 ], [ -72.277956696044626, 42.480626788833604 ], [ -72.277606202544334, 42.480245214936367 ], [ -72.278465876347326, 42.479855470558512 ], [ -72.278275643700312, 42.4784489761863 ], [ -72.278783224094568, 42.477549686729887 ], [ -72.278420121072983, 42.476144360063842 ], [ -72.277560497514841, 42.476534104475945 ], [ -72.277554193794487, 42.476022226889313 ], [ -72.278585101276988, 42.475503345052033 ], [ -72.278063341882742, 42.475250909471356 ], [ -72.278215705592459, 42.47358613914448 ], [ -72.278731138847519, 42.473326696264898 ], [ -72.278207819686571, 42.472946291707771 ], [ -72.278723247751174, 42.472686848820658 ], [ -72.278701153532154, 42.470895275412538 ], [ -72.277833721337515, 42.470645174607995 ], [ -72.278168392554349, 42.469747052933727 ], [ -72.27729152690921, 42.468729130224332 ], [ -72.277106078310752, 42.467706538949244 ], [ -72.276237123199394, 42.467328456223413 ], [ -72.276578094345567, 42.466942217327379 ], [ -72.276386369351783, 42.465407745387068 ], [ -72.275864702155374, 42.465155299194898 ], [ -72.276197799406177, 42.46412921216411 ], [ -72.27550644972483, 42.464133868343843 ], [ -72.275839547408879, 42.463107782081416 ], [ -72.275314759294176, 42.462599393519461 ], [ -72.276004519749833, 42.46246676861859 ], [ -72.275820682419379, 42.461572143541154 ], [ -72.276337600549283, 42.461440680480123 ], [ -72.275987223306274, 42.461059099774751 ], [ -72.276500990077139, 42.460671696110602 ], [ -72.275974644558872, 42.460035340297416 ], [ -72.276662801917283, 42.459774741410648 ], [ -72.277165531093289, 42.458491544812503 ], [ -72.277317878038403, 42.456826768535095 ], [ -72.276442778631292, 42.455936806081652 ], [ -72.275407459672167, 42.456071761105534 ], [ -72.274728755688088, 42.457100173194341 ], [ -72.273495519801173, 42.455188751707354 ], [ -72.272111451285255, 42.455070057343363 ], [ -72.271410822772836, 42.454306867891361 ], [ -72.270031457893595, 42.454572059097607 ], [ -72.268314240522088, 42.455479390807497 ], [ -72.26814920838531, 42.456120394391341 ], [ -72.265921226760213, 42.457670997133476 ], [ -72.265083480338191, 42.459852232017546 ], [ -72.263034306511969, 42.46191350961071 ], [ -72.264654866482388, 42.467277933955771 ], [ -72.263275189916271, 42.467543043380104 ], [ -72.262941864687775, 42.468569092137855 ], [ -72.262245831301982, 42.468189759167174 ], [ -72.262752011795712, 42.467162568063195 ], [ -72.261892413817264, 42.467552196479453 ], [ -72.26050193156351, 42.466921483356181 ], [ -72.259994176271363, 42.467820694726299 ], [ -72.259477171903995, 42.467952084233424 ], [ -72.259676191356149, 42.470126432544191 ], [ -72.260021899590996, 42.470124152476792 ], [ -72.260012658259711, 42.469356333378741 ], [ -72.260543544491711, 42.47037667008253 ], [ -72.260060407557049, 42.473323397077728 ], [ -72.25798605268912, 42.473337062603179 ], [ -72.257967618820459, 42.471801425198443 ], [ -72.257791688554093, 42.471546622647899 ], [ -72.257103325044909, 42.471807108009187 ], [ -72.2579461137735, 42.470009847454847 ], [ -72.259151475049862, 42.46961797127306 ], [ -72.258969393733139, 42.4688512908494 ], [ -72.258447767727617, 42.468598766017564 ], [ -72.258946323284249, 42.466931741981178 ], [ -72.258086704968321, 42.467321342024661 ], [ -72.257028148529727, 42.465536581728138 ], [ -72.258043692389066, 42.463738181637517 ], [ -72.257849356160875, 42.461947737374288 ], [ -72.258360168078553, 42.461304474412891 ], [ -72.258346338404692, 42.460152742913117 ], [ -72.258691992094143, 42.460150466830363 ], [ -72.258330972691965, 42.458873040849554 ], [ -72.257814038108336, 42.459004423192916 ], [ -72.257797148029411, 42.457596750411945 ], [ -72.258141251625986, 42.457466505702349 ], [ -72.258494574808751, 42.458104081535566 ], [ -72.258477669803497, 42.456696408533361 ], [ -72.258821767091675, 42.456566161761181 ], [ -72.258300243134428, 42.456313635470785 ], [ -72.259150481548289, 42.455156210797924 ], [ -72.259133562714482, 42.453748536843243 ], [ -72.258073668303865, 42.451835809560627 ], [ -72.257380917409165, 42.451712386518828 ], [ -72.255634508508223, 42.450188090691405 ], [ -72.255772091809703, 42.447243633303941 ], [ -72.25525371704299, 42.447247033908205 ], [ -72.254902016589909, 42.446737417058799 ], [ -72.255587054637374, 42.446221001859001 ], [ -72.255235357207454, 42.445711385896878 ], [ -72.255928038102709, 42.445834822029063 ], [ -72.25592497540454, 42.445578880662595 ], [ -72.255057981036757, 42.44532860678396 ], [ -72.254891311650937, 42.445841622310724 ], [ -72.252990645910288, 42.445854065255169 ], [ -72.253842367931455, 42.444824647478626 ], [ -72.253311804661081, 42.443804273301438 ], [ -72.254340857394837, 42.443157633358204 ], [ -72.25225834865202, 42.4424033710741 ], [ -72.252237015515675, 42.440611778952515 ], [ -72.251539832087047, 42.440104407719488 ], [ -72.251348796663663, 42.438569883808235 ], [ -72.252018542715874, 42.436773778710041 ], [ -72.252873208016553, 42.43600030787595 ], [ -72.253201948221275, 42.43459036665476 ], [ -72.254403607249188, 42.433942594474352 ], [ -72.254395967428849, 42.433302739040926 ], [ -72.255426368056817, 42.432784058832723 ], [ -72.255592998655686, 42.432271040873097 ], [ -72.256112781942292, 42.432395609833954 ], [ -72.256442963144238, 42.431113629255783 ], [ -72.257130886059173, 42.430853145176982 ], [ -72.257480981926349, 42.431234786105385 ], [ -72.257644522827562, 42.430465822700235 ], [ -72.258164295308632, 42.430590382455108 ], [ -72.258505178674667, 42.43020419350195 ], [ -72.257294430233117, 42.43008418219717 ], [ -72.257971592689046, 42.428927894758644 ], [ -72.260715426854006, 42.427246040634039 ], [ -72.261358575065969, 42.423274364258013 ], [ -72.260451826138564, 42.419696873804341 ], [ -72.259936755250195, 42.419956238382277 ], [ -72.259754807486601, 42.419189549710524 ], [ -72.258715445831982, 42.418940441520633 ], [ -72.258374624505279, 42.41932663215448 ], [ -72.257162551490381, 42.419078647658878 ], [ -72.256960713775101, 42.416648324219267 ], [ -72.256615297939646, 42.416650595131919 ], [ -72.256069617311482, 42.414350510249903 ], [ -72.255022705990996, 42.413461510022472 ], [ -72.253115389612873, 42.412834096543605 ], [ -72.252925922799918, 42.411427536852962 ], [ -72.251539807942649, 42.411052650411641 ], [ -72.251176171789623, 42.40951924282453 ], [ -72.251688149804508, 42.409003973031609 ], [ -72.252722748435374, 42.408869229652211 ], [ -72.252886289355871, 42.408100268850262 ], [ -72.253573976472111, 42.407839804573968 ], [ -72.254582580998374, 42.405529521569953 ], [ -72.257467493560142, 42.401287162270989 ], [ -72.259189541976795, 42.400891868439835 ], [ -72.263279415837644, 42.396385434717274 ], [ -72.26411793022055, 42.394332151354114 ], [ -72.264105556941516, 42.393308373924178 ], [ -72.263222253717501, 42.391650463896084 ], [ -72.261486610485463, 42.3908940683718 ], [ -72.259411886102697, 42.390651815210489 ], [ -72.258880151556625, 42.389503481001576 ], [ -72.257855086292125, 42.390406114599415 ], [ -72.256991905139728, 42.390411796683551 ], [ -72.254223618156104, 42.389918046160467 ], [ -72.25421903852984, 42.389534128861513 ], [ -72.252839490877946, 42.38967114590254 ], [ -72.251791511993119, 42.388654138623359 ], [ -72.250237827882145, 42.38866427984059 ], [ -72.24955336972684, 42.389180670388491 ], [ -72.249220234936303, 42.390206699090157 ], [ -72.249433826084697, 42.393660830482226 ], [ -72.247183387714472, 42.393163536506322 ], [ -72.247159190419737, 42.391115977240204 ], [ -72.245413192944028, 42.389463531540123 ], [ -72.24386551023278, 42.38998547690629 ], [ -72.243358136190906, 42.39088463185189 ], [ -72.242313294591739, 42.390123483675119 ], [ -72.24110784442486, 42.39038721873446 ], [ -72.240091499026917, 42.392057529163523 ], [ -72.238887498287951, 42.392449213382697 ], [ -72.239237271375217, 42.392830913281351 ], [ -72.239576569794735, 42.392316804339806 ], [ -72.240095993052137, 42.392441446793846 ], [ -72.241329996273848, 42.394609199834129 ], [ -72.240986200161274, 42.394739396315614 ], [ -72.241520655686401, 42.396143756611551 ], [ -72.241185853507901, 42.397041787999427 ], [ -72.241880977202342, 42.397421254827215 ], [ -72.242241313280431, 42.398698751531292 ], [ -72.242760794226072, 42.398823381770057 ], [ -72.243100096153015, 42.398309263161238 ], [ -72.243796750930102, 42.398816690613046 ], [ -72.242940973330036, 42.399462128722959 ], [ -72.242591141193131, 42.399080440676002 ], [ -72.241739852267358, 42.400109786656174 ], [ -72.240349555794467, 42.399350847542543 ], [ -72.239121478268686, 42.39769497600021 ], [ -72.237222256939233, 42.397707158841989 ], [ -72.233624684564177, 42.4001618060624 ], [ -72.233124503742857, 42.401700775498448 ], [ -72.232439764661891, 42.402217062658416 ], [ -72.233160124456759, 42.404772110772747 ], [ -72.234208070778365, 42.405789283870071 ], [ -72.235422776640661, 42.40629345520388 ], [ -72.235939326687557, 42.406162171648958 ], [ -72.235425754422607, 42.406549399557839 ], [ -72.235443621620632, 42.408085065352822 ], [ -72.234425355034688, 42.409627346688723 ], [ -72.234434276807676, 42.410395179171168 ], [ -72.235128018426352, 42.410646713529708 ], [ -72.235841133491945, 42.412561879818092 ], [ -72.237231666424989, 42.413320871012338 ], [ -72.238464483802616, 42.415360672182196 ], [ -72.23950670149037, 42.415865907097412 ], [ -72.240714144102157, 42.415730162224698 ], [ -72.241591186854123, 42.416876348434478 ], [ -72.240385223414066, 42.417140074255514 ], [ -72.239536650293388, 42.41842534300617 ], [ -72.239888069284774, 42.418935010315074 ], [ -72.239371423044517, 42.4190663111901 ], [ -72.240075769790494, 42.420213617218799 ], [ -72.239218167534318, 42.420731052673922 ], [ -72.238181851121354, 42.420737702578158 ], [ -72.237325719337605, 42.421383095553509 ], [ -72.234215249978021, 42.421274994434235 ], [ -72.234207816089778, 42.420635135701488 ], [ -72.235065458065293, 42.420117737560119 ], [ -72.233837115454776, 42.418461817828344 ], [ -72.233321945433815, 42.41872106339067 ], [ -72.233829685725752, 42.417821958636218 ], [ -72.23538557831499, 42.417940010868563 ], [ -72.237280929243695, 42.417543942973268 ], [ -72.237806531223612, 42.418180482218446 ], [ -72.238844301837418, 42.418301807459493 ], [ -72.239688394055094, 42.416632628364709 ], [ -72.237088815727631, 42.415881415109716 ], [ -72.236734452778691, 42.415115795100562 ], [ -72.235690779997938, 42.41448256306974 ], [ -72.235857522532967, 42.413969571404728 ], [ -72.235160764480497, 42.413462097720277 ], [ -72.234644153157063, 42.413593377552083 ], [ -72.233765796265828, 42.412319165497472 ], [ -72.231866134482431, 42.412331259905294 ], [ -72.231516297999207, 42.411949539361878 ], [ -72.231004131694448, 42.412464719050789 ], [ -72.230140646927524, 42.412470199678197 ], [ -72.229272732274794, 42.412091757596315 ], [ -72.229086750583491, 42.410941102714922 ], [ -72.229776044209032, 42.410808752940419 ], [ -72.229252060884377, 42.410300148046389 ], [ -72.229573808783542, 42.40825040459336 ], [ -72.228703004828901, 42.407616013409822 ], [ -72.227678688239124, 42.408646346475209 ], [ -72.227007076667789, 42.410314350039556 ], [ -72.225809994736949, 42.411345756458424 ], [ -72.22511921880556, 42.411350110308092 ], [ -72.225125091425255, 42.411861998912578 ], [ -72.226336900272386, 42.412110321142542 ], [ -72.224964138756775, 42.412886863773188 ], [ -72.225147114596311, 42.413781580617929 ], [ -72.224311476052819, 42.416218486397163 ], [ -72.224655423345908, 42.416088340399313 ], [ -72.22500670933384, 42.416598053415619 ], [ -72.225021390002397, 42.417877773210307 ], [ -72.226406026276706, 42.41812500642898 ], [ -72.226921219806158, 42.417865791780116 ], [ -72.226397200947815, 42.417357174751572 ], [ -72.227085097920877, 42.417096869331594 ], [ -72.227269588626456, 42.418119553824496 ], [ -72.227963386517359, 42.418371130898223 ], [ -72.227104237766923, 42.418760504442218 ], [ -72.227800989538537, 42.419268026243898 ], [ -72.227632694200693, 42.419653033712201 ], [ -72.228493326987632, 42.41939162817858 ], [ -72.230227879161873, 42.420020544361918 ], [ -72.230232315256075, 42.420404459824368 ], [ -72.228499227683727, 42.419903515620767 ], [ -72.22781867505563, 42.420803688531748 ], [ -72.227123378620647, 42.420424138881543 ], [ -72.225914347184641, 42.420431769173923 ], [ -72.224712653111524, 42.421079246141431 ], [ -72.22245997004751, 42.42045350004291 ], [ -72.222121843628628, 42.421095526963875 ], [ -72.221261161285639, 42.421356884755532 ], [ -72.221773479074457, 42.420841749524165 ], [ -72.221760325016902, 42.419690002178918 ], [ -72.220886522372496, 42.418799609663807 ], [ -72.220195664632314, 42.418803933958145 ], [ -72.219842947564743, 42.418166234517457 ], [ -72.219681893184116, 42.419191090436719 ], [ -72.21985169337691, 42.418934066545255 ], [ -72.220718186159942, 42.419184607065965 ], [ -72.22055714337742, 42.420209463957598 ], [ -72.219353941958786, 42.420728913095736 ], [ -72.219703753575644, 42.421110669793194 ], [ -72.218674705513209, 42.421757003679872 ], [ -72.218513623035946, 42.422781857074312 ], [ -72.217660169354446, 42.423683047198999 ], [ -72.216970709935993, 42.423815324005574 ], [ -72.216808142951308, 42.42471220265341 ], [ -72.215443683863356, 42.426256460272889 ], [ -72.215111248056402, 42.427410352867888 ], [ -72.215472662941423, 42.428815895891432 ], [ -72.214103743775482, 42.429976220989111 ], [ -72.214118206736458, 42.431255938003979 ], [ -72.213589844163238, 42.430363349226432 ], [ -72.213074494054041, 42.430622503421063 ], [ -72.212721782883577, 42.429984783995842 ], [ -72.211682429242245, 42.429735251854545 ], [ -72.210994331242574, 42.429995464428593 ], [ -72.210473217807234, 42.429742719963699 ], [ -72.210304788996325, 42.430127701111317 ], [ -72.209442497921586, 42.430260998208858 ], [ -72.209086953227413, 42.429367324002804 ], [ -72.209419509336442, 42.428213449356484 ], [ -72.208902723958914, 42.428344613185395 ], [ -72.208898416895849, 42.427960697653944 ], [ -72.210103280059585, 42.427569330557652 ], [ -72.210440124446464, 42.426799368087984 ], [ -72.209402268875223, 42.426677787041932 ], [ -72.209397958890861, 42.426293871373012 ], [ -72.208878317960213, 42.426169091362638 ], [ -72.208676879395455, 42.423610715842969 ], [ -72.209019463292194, 42.423352644804503 ], [ -72.208150091642167, 42.422846072454007 ], [ -72.208829511003856, 42.421818044245057 ], [ -72.20934767960911, 42.421814852574165 ], [ -72.208651047969724, 42.421307219408945 ], [ -72.209677317034746, 42.420405030912157 ], [ -72.210024192812071, 42.42053087291491 ], [ -72.209691688171176, 42.421684751464525 ], [ -72.211073467971346, 42.421676224810646 ], [ -72.211754268497586, 42.420776151098096 ], [ -72.214168009090443, 42.420377259201935 ], [ -72.214851646633065, 42.419733110977191 ], [ -72.215713782653381, 42.419599773029091 ], [ -72.215725377157455, 42.420623549096895 ], [ -72.215892297952564, 42.420110587125869 ], [ -72.216410452199625, 42.420107363664187 ], [ -72.216578817111909, 42.419722372647463 ], [ -72.215887948990797, 42.419726671088952 ], [ -72.216054866097565, 42.419213708770968 ], [ -72.215533821326517, 42.418960986548043 ], [ -72.216218879911395, 42.418444802047937 ], [ -72.216575915035733, 42.419466428620133 ], [ -72.216738471822467, 42.418569549160317 ], [ -72.216215979351531, 42.418188857932556 ], [ -72.214838618948932, 42.418581362536237 ], [ -72.214481616907534, 42.417559730357915 ], [ -72.213098483620556, 42.417440325805629 ], [ -72.213435237533545, 42.41667035268285 ], [ -72.213612281163535, 42.417053198546377 ], [ -72.214301673843195, 42.416920941636356 ], [ -72.21465143386537, 42.417302714036197 ], [ -72.21429878111725, 42.416664997378739 ], [ -72.215674653975285, 42.416144526923595 ], [ -72.215841563352839, 42.415631564471916 ], [ -72.215494702882197, 42.415505739849372 ], [ -72.215840113898494, 42.415503592324747 ], [ -72.216342275229977, 42.414092675285417 ], [ -72.217385747696724, 42.41472608278746 ], [ -72.216530935860661, 42.415499294166096 ], [ -72.217220305483025, 42.415367019727668 ], [ -72.217227566770731, 42.416006880357948 ], [ -72.217744233987816, 42.415875678771421 ], [ -72.217234828205477, 42.416646740889298 ], [ -72.217752953985979, 42.416643511382276 ], [ -72.218278351785727, 42.41728013991105 ], [ -72.218969193000277, 42.417275827121571 ], [ -72.219137534782945, 42.416890832099803 ], [ -72.219130254057148, 42.416250971726214 ], [ -72.218437969327127, 42.416127313388188 ], [ -72.218947356244911, 42.415356245849857 ], [ -72.219641090672738, 42.415607873247325 ], [ -72.219819626437868, 42.416118681745182 ], [ -72.220337747757057, 42.416115440603591 ], [ -72.22066419190925, 42.414449641313219 ], [ -72.219967550564263, 42.413942075729487 ], [ -72.2196221482222, 42.413944235639967 ], [ -72.219627976562307, 42.414456124205664 ], [ -72.217898043323373, 42.414210963979578 ], [ -72.217541016515824, 42.413189340215929 ], [ -72.218751365712563, 42.413309770032022 ], [ -72.218758642263822, 42.413949630881774 ], [ -72.219443620195207, 42.413433426569078 ], [ -72.219439250121809, 42.413049510049554 ], [ -72.218749910419987, 42.41318179785025 ], [ -72.219265095053828, 42.412922617158728 ], [ -72.219426140220122, 42.41189776027808 ], [ -72.220457937491489, 42.41150736257616 ], [ -72.221668260036751, 42.411627761769552 ], [ -72.222521493796677, 42.410726539316315 ], [ -72.2223180898538, 42.408040205888341 ], [ -72.222659070585763, 42.407654120993385 ], [ -72.221107834763231, 42.407919813425181 ], [ -72.221273218067282, 42.407278869756937 ], [ -72.220411261820189, 42.407412249734435 ], [ -72.220401052323254, 42.406516443265176 ], [ -72.219531821021263, 42.406009954819837 ], [ -72.221939102399148, 42.405099008918754 ], [ -72.221757658268771, 42.404332257540581 ], [ -72.222783464685946, 42.403429948548045 ], [ -72.223301481854051, 42.40342669405667 ], [ -72.223297089043101, 42.40304277676892 ], [ -72.222954673504063, 42.403300891546984 ], [ -72.222606403668138, 42.403047115546691 ], [ -72.222942965099904, 42.402277111969369 ], [ -72.223803380721904, 42.402015740412118 ], [ -72.223623387709992, 42.401376963897 ], [ -72.222249363820438, 42.402025503672149 ], [ -72.221729897014626, 42.401900780941432 ], [ -72.223102459696563, 42.401124274855526 ], [ -72.224138456160262, 42.401117760666175 ], [ -72.225364739258026, 42.40264581832065 ], [ -72.227087025308691, 42.402251005004508 ], [ -72.227255277642229, 42.401865996732944 ], [ -72.227774755062271, 42.401990694524493 ], [ -72.229117725404919, 42.398654667274577 ], [ -72.229101490402954, 42.397246969614969 ], [ -72.229789157427732, 42.396986646790438 ], [ -72.229434988784206, 42.396221000876778 ], [ -72.230476818789398, 42.396726319840738 ], [ -72.230299729960635, 42.396343498072163 ], [ -72.23081916800848, 42.396468182283762 ], [ -72.231155594391808, 42.3956981535 ], [ -72.231676509880742, 42.395950806410781 ], [ -72.232879138489508, 42.395431225424154 ], [ -72.233916526230558, 42.395552595743361 ], [ -72.234599694119368, 42.394908326454619 ], [ -72.236842638083644, 42.39476600381753 ], [ -72.237007827464282, 42.394125035561295 ], [ -72.235800789504978, 42.3942607422549 ], [ -72.235797810783609, 42.394004797169146 ], [ -72.236652096366782, 42.39323143879696 ], [ -72.236998876732983, 42.393357200327245 ], [ -72.236646132152813, 42.392719548530984 ], [ -72.23699141795629, 42.392717337526442 ], [ -72.237153616369397, 42.391820423568568 ], [ -72.236455601372413, 42.391184982451662 ], [ -72.236967550885382, 42.390669775918724 ], [ -72.235933216495198, 42.390804378255005 ], [ -72.235754622033767, 42.39029359169794 ], [ -72.234546167790484, 42.390301312696295 ], [ -72.23640194297667, 42.386577965563447 ], [ -72.23587512850068, 42.385813442364565 ], [ -72.236729302473606, 42.385040081946038 ], [ -72.236550717861888, 42.384529295941789 ], [ -72.235160826226505, 42.383770291384835 ], [ -72.235320051403804, 42.382617432371418 ], [ -72.235845343342334, 42.383253985812601 ], [ -72.23635127278186, 42.382226889521235 ], [ -72.235651882973841, 42.381463469206544 ], [ -72.236689046899485, 42.381584814924182 ], [ -72.237026814158085, 42.380942739240652 ], [ -72.236504510449663, 42.380562136735506 ], [ -72.236848238714146, 42.380431953215975 ], [ -72.238409194295045, 42.381061857312957 ], [ -72.239111604495861, 42.382081206659066 ], [ -72.239974673524642, 42.382075658696728 ], [ -72.240124819858394, 42.380154955233508 ], [ -72.239599510586018, 42.379518420878256 ], [ -72.237865976117178, 42.378889639914881 ], [ -72.237858510273597, 42.378249775028699 ], [ -72.234750161500472, 42.378141687235022 ], [ -72.235947958370545, 42.37723815287859 ], [ -72.235589360201118, 42.376088603198447 ], [ -72.23643744548896, 42.374803350780574 ], [ -72.237816704341355, 42.374666529926294 ], [ -72.239385008131904, 42.375936286935122 ], [ -72.240416095466642, 42.375545707052574 ], [ -72.241280575206659, 42.375668122315922 ], [ -72.241813374969354, 42.376944514470473 ], [ -72.24148468051655, 42.378354442481005 ], [ -72.242006995962981, 42.378735022568812 ], [ -72.242383753991916, 42.381420225832144 ], [ -72.243080216961658, 42.381927659614924 ], [ -72.245151576506899, 42.381914262176664 ], [ -72.245331731580919, 42.382553007900931 ], [ -72.246022191528908, 42.382548532720342 ], [ -72.246871662870944, 42.381391178080655 ], [ -72.246859571326524, 42.380367395745935 ], [ -72.246160075233206, 42.379604038990763 ], [ -72.247880090418647, 42.379080939539776 ], [ -72.247872523230384, 42.378441075335907 ], [ -72.247351687273778, 42.378188494720064 ], [ -72.248022421073387, 42.376520359972652 ], [ -72.24801636640359, 42.376008468324635 ], [ -72.247147333294421, 42.375502184868445 ], [ -72.247487987006181, 42.375116023503836 ], [ -72.248525069536328, 42.375237262694675 ], [ -72.248874805595946, 42.375618934812181 ], [ -72.24820258977752, 42.377159101991595 ], [ -72.24873099632913, 42.378051543113386 ], [ -72.251144392792995, 42.377779844792222 ], [ -72.251312433555668, 42.377394799173835 ], [ -72.252184570285408, 42.378156996556605 ], [ -72.253212566339542, 42.377510356548164 ], [ -72.254080149623775, 42.377888621169333 ], [ -72.25511270606647, 42.377625882534964 ], [ -72.25546402386604, 42.378135507175912 ], [ -72.256669180612704, 42.377871620976599 ], [ -72.257179325435544, 42.377228350180502 ], [ -72.258735798227377, 42.37747406068388 ], [ -72.259421591459187, 42.377085586862236 ], [ -72.261491247960237, 42.376943922488209 ], [ -72.263397564999451, 42.377571202458149 ], [ -72.267025290577479, 42.377803037542989 ], [ -72.268040695495273, 42.376132483807844 ], [ -72.267173052813561, 42.375754324322585 ], [ -72.267686180586296, 42.375366952001215 ], [ -72.266473362577216, 42.374991090291452 ], [ -72.267678413457858, 42.374727088574048 ], [ -72.268698418038923, 42.373440446074419 ], [ -72.270419638038419, 42.373044981649322 ], [ -72.271627758071716, 42.373036883865495 ], [ -72.271630880803528, 42.373292829239226 ], [ -72.272490700763115, 42.373031091965956 ], [ -72.273185748337724, 42.373410371777958 ], [ -72.273869842844491, 42.372893838799328 ], [ -72.273872974642543, 42.373149784120422 ], [ -72.275255253709787, 42.373268459661858 ], [ -72.275780869883022, 42.373904832062678 ], [ -72.276640680987072, 42.373643063807023 ], [ -72.277489472372196, 42.372485480813502 ], [ -72.277649471068983, 42.371460533041343 ], [ -72.278162499838032, 42.371073113614386 ], [ -72.277293293283506, 42.370567057353718 ], [ -72.277809464580216, 42.370435584808192 ], [ -72.277969452906149, 42.369410636114402 ], [ -72.279674729849091, 42.367735305451177 ], [ -72.281699750084883, 42.364010039071729 ], [ -72.282019562981745, 42.361960127436028 ], [ -72.282529321674076, 42.361316741936747 ], [ -72.283015308623732, 42.358753760299173 ], [ -72.282489745562941, 42.35811741878419 ], [ -72.282295041921387, 42.356326970686489 ], [ -72.282796834798532, 42.355043717926698 ], [ -72.281742622596155, 42.353515083139307 ], [ -72.282597382744456, 42.352869349783425 ], [ -72.283778163473386, 42.350685580786127 ], [ -72.283247906872319, 42.349665322031186 ], [ -72.284268777114946, 42.348506507502655 ], [ -72.284740310308251, 42.344791751528753 ], [ -72.28558221106978, 42.343122207945434 ], [ -72.285395408171055, 42.341971626150915 ], [ -72.286729293627289, 42.338250961495177 ], [ -72.287912845772055, 42.336323090118533 ], [ -72.288053460488214, 42.333762436956995 ], [ -72.289749524968585, 42.331447075588159 ], [ -72.290584721578753, 42.329265595866453 ], [ -72.291948458422411, 42.327976361444044 ], [ -72.291423061117797, 42.327340056480843 ], [ -72.292785136418459, 42.325922837857007 ], [ -72.292769106988274, 42.324643100405559 ], [ -72.292422592355408, 42.324517505047517 ], [ -72.292925530921494, 42.323362173033573 ], [ -72.293945799763279, 42.322203266008799 ], [ -72.294274639894937, 42.320921144777905 ], [ -72.29614740120968, 42.318988412519907 ], [ -72.295957259129281, 42.317581894131941 ], [ -72.295265903666291, 42.317458695139351 ], [ -72.295085430020464, 42.31682001855507 ], [ -72.294221650045344, 42.316698006073352 ], [ -72.294044399646452, 42.316315275694571 ], [ -72.293356269506717, 42.316448013122056 ], [ -72.2928277481208, 42.315555765031334 ], [ -72.292982545333743, 42.314146861080502 ], [ -72.291585521491356, 42.31274865620604 ], [ -72.291572719963526, 42.311724863294288 ], [ -72.292091584259737, 42.311849273231424 ], [ -72.29379654163894, 42.31030168641766 ], [ -72.293783704851649, 42.309277893230039 ], [ -72.292219164323598, 42.308264808089206 ], [ -72.292212758838062, 42.30775291121806 ], [ -72.294254387627021, 42.305563067159127 ], [ -72.295087480537717, 42.303253568524305 ], [ -72.294854032472628, 42.298391735266605 ], [ -72.301734830789087, 42.297192055208306 ], [ -72.303814777376104, 42.298073421813811 ], [ -72.305341815106459, 42.29614294213895 ], [ -72.306714320206865, 42.295621369850075 ], [ -72.307408723052887, 42.296000449179942 ], [ -72.307924223976798, 42.295868839393194 ], [ -72.308623539477765, 42.296631834266037 ], [ -72.308114566665949, 42.297275344304879 ], [ -72.308477303012168, 42.29868063558758 ], [ -72.310058239033623, 42.300973243055346 ], [ -72.309726548874963, 42.301999466507091 ], [ -72.310603265281557, 42.303145155637154 ], [ -72.310606542119174, 42.303401103805058 ], [ -72.309915313001909, 42.303277992572148 ], [ -72.310100809885952, 42.304300569868808 ], [ -72.309416116090205, 42.304689351897586 ], [ -72.309598336152007, 42.305455981627624 ], [ -72.308220740609087, 42.305593665159705 ], [ -72.308923437296102, 42.306612604748324 ], [ -72.308938153522462, 42.307764370786032 ], [ -72.310161399198279, 42.309035607900945 ], [ -72.310854330731019, 42.309286691429271 ], [ -72.311880609032585, 42.308639517583735 ], [ -72.312581755848555, 42.309530460258145 ], [ -72.31327141444153, 42.309525581412522 ], [ -72.314125259051238, 42.308879607652486 ], [ -72.315511155636273, 42.30938172272964 ], [ -72.315504561712757, 42.3088698272947 ], [ -72.316358374693436, 42.308223836854253 ], [ -72.317235297302361, 42.309369473903523 ], [ -72.318614610154455, 42.309359656217509 ], [ -72.319655721997023, 42.309864177233521 ], [ -72.326212514033074, 42.310201178825743 ], [ -72.327067907561542, 42.30968308268826 ], [ -72.328132528472182, 42.311979157821987 ], [ -72.330921498877615, 42.314262767838244 ], [ -72.332988940750298, 42.314119815235841 ], [ -72.332983888933512, 42.313735894804665 ], [ -72.333501166054404, 42.313732144230762 ], [ -72.336407039194413, 42.311791245127623 ], [ -72.339500422145349, 42.311000773610544 ], [ -72.339840165263425, 42.310614333552152 ], [ -72.340703950026281, 42.310736003314844 ], [ -72.341385115391006, 42.310091088461533 ], [ -72.342421311918159, 42.310211482790621 ], [ -72.344297406299532, 42.308661882378509 ], [ -72.347899196558529, 42.307227515404975 ], [ -72.34752011840223, 42.304670589762715 ], [ -72.34645491735543, 42.302374690814901 ], [ -72.344372529572524, 42.301366123368211 ], [ -72.342972949434852, 42.299840566039784 ], [ -72.342961023370279, 42.298944750031986 ], [ -72.344005569561403, 42.299704998930565 ], [ -72.344515903954715, 42.299189303973009 ], [ -72.344679753930421, 42.298548168216264 ], [ -72.344143349381952, 42.297771065501159 ], [ -72.364038345347041, 42.300292006660385 ], [ -72.365238882354248, 42.301722829146193 ], [ -72.366971567056652, 42.302349700639176 ], [ -72.367509789988304, 42.303881476058109 ], [ -72.368026984512937, 42.30387757007437 ], [ -72.370122142910006, 42.305781520311946 ], [ -72.370301582792294, 42.306292107170734 ], [ -72.369610206205493, 42.306169355146032 ], [ -72.369620752884373, 42.306937193896893 ], [ -72.371357146328322, 42.307819944772028 ], [ -72.370671030846339, 42.308081118357883 ], [ -72.371193542517929, 42.308461117315055 ], [ -72.371036978289453, 42.309614181655355 ], [ -72.372247400547565, 42.309860973039207 ], [ -72.372771700632441, 42.310368937664911 ], [ -72.371392374460683, 42.310379405383031 ], [ -72.371404704979938, 42.311275216272115 ], [ -72.370885689751134, 42.311151164471227 ], [ -72.37075199634252, 42.313967875868727 ], [ -72.37007460633734, 42.314868910030953 ], [ -72.37025934957434, 42.315763414620783 ], [ -72.369587207353774, 42.317048364090759 ], [ -72.369284516990859, 42.320122320420055 ], [ -72.368128319507008, 42.323842653232163 ], [ -72.367850092659921, 42.328708217410615 ], [ -72.368383293171306, 42.329856062697957 ], [ -72.367874660913287, 42.330499832835976 ], [ -72.368925298340201, 42.331643767564742 ], [ -72.369835158016443, 42.335092500441142 ], [ -72.368615479857368, 42.3342058230498 ], [ -72.367754830703916, 42.33434030850443 ], [ -72.367395835875271, 42.333319132549221 ], [ -72.36618848705163, 42.333328236202021 ], [ -72.363740602121723, 42.330914927520908 ], [ -72.362876497695893, 42.330793431435175 ], [ -72.362197072004648, 42.331566443396078 ], [ -72.36150543503831, 42.331443643263711 ], [ -72.36135560464669, 42.333108578954196 ], [ -72.360174350374166, 42.33503720703694 ], [ -72.360026215680008, 42.336830112154701 ], [ -72.360935664923005, 42.340278911580093 ], [ -72.361637852871723, 42.341169548802768 ], [ -72.361303304655863, 42.341939967656778 ], [ -72.362066539427445, 42.34730962897428 ], [ -72.363291616847107, 42.348580289546589 ], [ -72.362625963877647, 42.350377077345257 ], [ -72.362328008855386, 42.353834909041034 ], [ -72.361650072014243, 42.354735885798362 ], [ -72.361677961014607, 42.356783436107349 ], [ -72.363128142622998, 42.361891955916299 ], [ -72.364017144275337, 42.363805052443119 ], [ -72.364534828963741, 42.363801162229024 ], [ -72.364728384315242, 42.365335524125037 ], [ -72.365599969343108, 42.365968891564563 ], [ -72.367845101366086, 42.36607995778413 ], [ -72.366816710119906, 42.366599651728563 ], [ -72.365092768664141, 42.366740615803813 ], [ -72.36477912354745, 42.369046698199092 ], [ -72.367478337720996, 42.377089399162926 ], [ -72.368889010082, 42.379254487907396 ], [ -72.368906593742693, 42.38053419877356 ], [ -72.369427933990693, 42.380786228678929 ], [ -72.369616380391349, 42.381936663380579 ], [ -72.37049352819615, 42.382953904317397 ], [ -72.370151822771234, 42.383212457867891 ], [ -72.37050233668738, 42.383593759130626 ], [ -72.371363650343, 42.383459254582981 ], [ -72.371539793018826, 42.383713888962511 ], [ -72.371724758115064, 42.384608377627202 ], [ -72.370856379717011, 42.38423100115736 ], [ -72.371384812321452, 42.384994905635835 ], [ -72.371046625239273, 42.38550940349559 ], [ -72.37260904104285, 42.3861374852751 ], [ -72.373836851141533, 42.387535993164022 ], [ -72.374527355618781, 42.387530746790823 ], [ -72.373669529711904, 42.387921216456384 ], [ -72.372621403571458, 42.387033281100912 ], [ -72.371418320889518, 42.387426352013229 ], [ -72.370579859097376, 42.3892244773767 ], [ -72.370456558132474, 42.392808963986901 ], [ -72.371002687668692, 42.394852575078794 ], [ -72.37382870089823, 42.39943857076161 ], [ -72.373832238694405, 42.399694511612793 ], [ -72.373141601302152, 42.399699753799133 ], [ -72.373152206475311, 42.400467576322129 ], [ -72.374015513681854, 42.400461022863226 ], [ -72.375277299019004, 42.404290946711463 ], [ -72.37579354155686, 42.404159035597253 ], [ -72.376329296836445, 42.405434794705279 ], [ -72.378244722953696, 42.406572047597855 ], [ -72.377555787422239, 42.406705286409732 ], [ -72.377575330893322, 42.4081129578448 ], [ -72.378104044347708, 42.408876827180677 ], [ -72.379143710008506, 42.409124857807697 ], [ -72.380366763896305, 42.410139378403187 ], [ -72.381230202449558, 42.410132770838622 ], [ -72.380202986642132, 42.410780549122165 ], [ -72.379334198068022, 42.410403238962353 ], [ -72.378645223075168, 42.410536484173811 ], [ -72.378995939748691, 42.41091775711277 ], [ -72.378664791993558, 42.411944154137416 ], [ -72.379880766657919, 42.412446799406304 ], [ -72.379886111215171, 42.412830709210901 ], [ -72.379198891067375, 42.413091927582073 ], [ -72.379382269986451, 42.41385842784284 ], [ -72.380781686757445, 42.415127563099247 ], [ -72.379396514527187, 42.414882186957819 ], [ -72.378865955716194, 42.413990354748961 ], [ -72.378524116748508, 42.414248931276269 ], [ -72.37731344724348, 42.414130181697054 ], [ -72.377154956838254, 42.415155257175421 ], [ -72.376300320923434, 42.415801683676129 ], [ -72.3764978707501, 42.417591946861243 ], [ -72.376156002613669, 42.417850516131935 ], [ -72.377224228865813, 42.420146080246454 ], [ -72.377742374245244, 42.42014213063856 ], [ -72.377749483883534, 42.42065400955412 ], [ -72.377402274119248, 42.420528673178005 ], [ -72.377601647110637, 42.422446902097846 ], [ -72.379344887268175, 42.4235854486232 ], [ -72.379348448756829, 42.42384138782581 ], [ -72.378652209903763, 42.423462754243481 ], [ -72.378310318822528, 42.423721329544598 ], [ -72.378497275900855, 42.424743768426815 ], [ -72.379188186550039, 42.424738494130636 ], [ -72.378680680122017, 42.425510267647837 ], [ -72.379378722575197, 42.42601687040051 ], [ -72.37956570373187, 42.427039306976312 ], [ -72.380256639390339, 42.42703402627113 ], [ -72.380958279541957, 42.427796558186614 ], [ -72.380096381979911, 42.427931133142522 ], [ -72.380107076398616, 42.428698949819506 ], [ -72.3806270752074, 42.428822956668455 ], [ -72.38028694600554, 42.429209506913772 ], [ -72.380981473753195, 42.429460160684542 ], [ -72.380468601704848, 42.429848033057816 ], [ -72.380648477503826, 42.430358589443763 ], [ -72.380132031053023, 42.430490521501298 ], [ -72.380531017756326, 42.434326959318881 ], [ -72.380228297976998, 42.437400861984727 ], [ -72.380767992779965, 42.438932528386196 ], [ -72.381467985752522, 42.439567085885628 ], [ -72.380791186068876, 42.440596126363033 ], [ -72.380800106889851, 42.441235971554768 ], [ -72.381318425013447, 42.441232005872287 ], [ -72.380978233234046, 42.441618556977843 ], [ -72.381334492394714, 42.442383726888345 ], [ -72.380646956760472, 42.442644952021006 ], [ -72.380484881683088, 42.443414087022596 ], [ -72.381010356375086, 42.44392199855141 ], [ -72.380693340911037, 42.445972144261141 ], [ -72.381391625606298, 42.44647873225324 ], [ -72.381753276032285, 42.447627806404945 ], [ -72.38106033036199, 42.447505127242039 ], [ -72.380875048920586, 42.446610667117618 ], [ -72.379654844739846, 42.445852098759893 ], [ -72.378976167538127, 42.44675315809269 ], [ -72.381243831766966, 42.448271618073527 ], [ -72.382316332396655, 42.450823055186866 ], [ -72.381626922830179, 42.450956316927417 ], [ -72.381632281258291, 42.451340223022697 ], [ -72.381279538811171, 42.450830993182095 ], [ -72.380948218918732, 42.451857386728619 ], [ -72.37971187220181, 42.44994710140989 ], [ -72.379022466701358, 42.450080347590323 ], [ -72.378482718979669, 42.448548677260291 ], [ -72.378993974331422, 42.448032846691262 ], [ -72.378306367534179, 42.448294057482101 ], [ -72.37791987679006, 42.445353407921203 ], [ -72.377219855342531, 42.444718829767048 ], [ -72.37720919330296, 42.44395101585755 ], [ -72.37547784379727, 42.443708226011644 ], [ -72.376510970086443, 42.443444402188128 ], [ -72.375989084511616, 42.443192408158367 ], [ -72.376323989813486, 42.442421964782724 ], [ -72.376840541752628, 42.442290050194082 ], [ -72.376313339049432, 42.441654150351468 ], [ -72.374421681471631, 42.442308442693836 ], [ -72.373577267862373, 42.44372265904412 ], [ -72.372887917350766, 42.4438558687118 ], [ -72.37354010739007, 42.441035307870678 ], [ -72.376464808051267, 42.440117206174946 ], [ -72.376970682510347, 42.439217476044561 ], [ -72.376621596614953, 42.438964168726272 ], [ -72.375761311382917, 42.439226680019289 ], [ -72.375237690786506, 42.438846713140748 ], [ -72.376089100193767, 42.437944359759435 ], [ -72.37433843865351, 42.436293890831671 ], [ -72.373804231744117, 42.435146101308121 ], [ -72.373955746177728, 42.433609157960277 ], [ -72.373793612826859, 42.434378285262092 ], [ -72.371722328562072, 42.434521967932575 ], [ -72.371884487494754, 42.433752843574688 ], [ -72.371197006711952, 42.434014012845196 ], [ -72.371366230135848, 42.433756766803491 ], [ -72.37101719687908, 42.433503442154894 ], [ -72.370675220223902, 42.433761994146707 ], [ -72.370322664220936, 42.433252728528238 ], [ -72.37083562618372, 42.432864901675558 ], [ -72.370655822541025, 42.432354330276723 ], [ -72.371494854474719, 42.430556222868979 ], [ -72.371842107620864, 42.430681576755639 ], [ -72.371836810426302, 42.430297668239483 ], [ -72.371320346078164, 42.43042956077435 ], [ -72.371653475328543, 42.429531159014168 ], [ -72.371122902804657, 42.428639294285915 ], [ -72.371447201122493, 42.427101044666912 ], [ -72.370574714321492, 42.426467730613915 ], [ -72.370565899121189, 42.425827882310983 ], [ -72.371075271234957, 42.425184114312664 ], [ -72.371593458306208, 42.425180192385348 ], [ -72.371068215149094, 42.424672235549039 ], [ -72.371757360231285, 42.424539036145525 ], [ -72.372095750394564, 42.424024540958143 ], [ -72.371403082294435, 42.42390180297636 ], [ -72.369860883088293, 42.424809347284885 ], [ -72.369534796967869, 42.426219623622792 ], [ -72.368667619016705, 42.425970204045385 ], [ -72.368648268445625, 42.424562537155012 ], [ -72.369166450570432, 42.424558626150812 ], [ -72.370528877229219, 42.423140518343324 ], [ -72.369483732559829, 42.42250850138435 ], [ -72.369120689005271, 42.421231411776773 ], [ -72.368607810946258, 42.421619232090414 ], [ -72.36894269190887, 42.420848806103855 ], [ -72.367536359359008, 42.419067649005676 ], [ -72.367686230711499, 42.417402737913015 ], [ -72.366463239829514, 42.416388084353237 ], [ -72.36627299406797, 42.415109683745321 ], [ -72.365412990554518, 42.415372119253959 ], [ -72.365229776657245, 42.414605597027588 ], [ -72.365922330887798, 42.414728372427035 ], [ -72.365917070987734, 42.414344462153935 ], [ -72.365740865601495, 42.414089821002293 ], [ -72.364879122567558, 42.414224282485215 ], [ -72.365529611819866, 42.411275776415643 ], [ -72.365335896343808, 42.409741432212492 ], [ -72.362682713145958, 42.405153944956204 ], [ -72.36267223435253, 42.404386122324887 ], [ -72.361974564655114, 42.403879415657762 ], [ -72.362311178160653, 42.403236976189099 ], [ -72.361962349702097, 42.402983622228533 ], [ -72.361967584639586, 42.403367533721614 ], [ -72.361104236500196, 42.403373996797775 ], [ -72.361051942409802, 42.399534879902482 ], [ -72.360167751626918, 42.398005688223712 ], [ -72.358420349306115, 42.396482932155017 ], [ -72.356828334358568, 42.393679155139431 ], [ -72.357138921879198, 42.391117165619853 ], [ -72.356793649357201, 42.391119737146006 ], [ -72.356778042022697, 42.389967998547363 ], [ -72.355721459412763, 42.388440054638735 ], [ -72.355704140399396, 42.387160344107201 ], [ -72.355358889425048, 42.387162911330499 ], [ -72.356164834456123, 42.382933444121377 ], [ -72.356131914748104, 42.380501990819425 ], [ -72.355772845558093, 42.379480789068623 ], [ -72.355253301235322, 42.379356668523862 ], [ -72.355553494557327, 42.376026846427123 ], [ -72.354331498456816, 42.375012054135944 ], [ -72.354322854763524, 42.37437219683725 ], [ -72.353634219623004, 42.37450529345135 ], [ -72.352577971283281, 42.372977315241975 ], [ -72.351709866847685, 42.372599793265046 ], [ -72.351872110380114, 42.37183068584141 ], [ -72.351002303973033, 42.371325186833637 ], [ -72.350486277750178, 42.371456987744928 ], [ -72.350985085128443, 42.370045470570581 ], [ -72.350620995142947, 42.368640335267017 ], [ -72.351097391300556, 42.365565183876207 ], [ -72.350686855284636, 42.360704807053523 ], [ -72.349463514744883, 42.35956198758992 ], [ -72.349244577276579, 42.356108017389658 ], [ -72.348366427237281, 42.354962636190599 ], [ -72.348501203883757, 42.352145975788133 ], [ -72.34657768577371, 42.350240380191742 ], [ -72.345865343577472, 42.348581818831782 ], [ -72.346017329384523, 42.347044881335279 ], [ -72.345480969661907, 42.345640991782695 ], [ -72.345814019383283, 42.344742647161873 ], [ -72.34546899945785, 42.344745184733128 ], [ -72.344929253643429, 42.343085346917633 ], [ -72.344059897839003, 42.342579792179372 ], [ -72.344947957530124, 42.331566539545442 ], [ -72.344379311959003, 42.327731155156698 ], [ -72.344719115093568, 42.327344702039454 ], [ -72.345924642373092, 42.327207850929732 ], [ -72.346605931811865, 42.326562907372306 ], [ -72.347787441353361, 42.32463441522922 ], [ -72.347942751830089, 42.32335341324854 ], [ -72.349482793319979, 42.322446141635837 ], [ -72.350665858229164, 42.320645591273944 ], [ -72.351522914294108, 42.320255287307262 ], [ -72.351855744703713, 42.319356920282878 ], [ -72.351645424319941, 42.316542790241918 ], [ -72.35111608070369, 42.31565081043032 ], [ -72.348676316478375, 42.313749064821117 ], [ -72.347464198622617, 42.313374052095853 ], [ -72.346808738113182, 42.315938601211137 ], [ -72.345950001217204, 42.316200897156961 ], [ -72.345277360934674, 42.317485704286042 ], [ -72.343908111901328, 42.318263681239756 ], [ -72.341702154658648, 42.320967556984456 ], [ -72.341589262572228, 42.325447878248781 ], [ -72.340892631785721, 42.324941034799075 ], [ -72.340213000450291, 42.325713917769413 ], [ -72.339509588044606, 42.324695173674684 ], [ -72.339294708102855, 42.321497104722532 ], [ -72.338270196514813, 42.322272494792188 ], [ -72.33652541171125, 42.320749380533478 ], [ -72.334280255888658, 42.320509728610205 ], [ -72.33206203288907, 42.322317605495279 ], [ -72.331712089893358, 42.321936181989862 ], [ -72.331929952402987, 42.325390211179652 ], [ -72.330049702707015, 42.326683657858901 ], [ -72.330093341854962, 42.330010959216672 ], [ -72.328924602435919, 42.332963051490438 ], [ -72.328804079888229, 42.336931457031547 ], [ -72.327596656722136, 42.336940155372815 ], [ -72.327246659781181, 42.336558719467106 ], [ -72.32604091400907, 42.336695374412358 ], [ -72.325705956106418, 42.337465690369278 ], [ -72.324166875022101, 42.338500613382408 ], [ -72.32417354210466, 42.339012505094693 ], [ -72.321611043935363, 42.340950618614507 ], [ -72.321448511780673, 42.341719688592619 ], [ -72.32232266446178, 42.342609332934217 ], [ -72.321115132066254, 42.342617963193987 ], [ -72.320610895473763, 42.343645440856299 ], [ -72.320091714405393, 42.343521160533925 ], [ -72.318205719364499, 42.344430489935377 ], [ -72.318421266626999, 42.34775655515547 ], [ -72.319122939021611, 42.348647450463368 ], [ -72.318787833618401, 42.349417744252015 ], [ -72.319134536943395, 42.34954325944549 ], [ -72.319350150454824, 42.35286931918268 ], [ -72.319710138803146, 42.354018613215295 ], [ -72.320576137347743, 42.354268405689268 ], [ -72.320254294092095, 42.356062482859201 ], [ -72.320936912897579, 42.356953502203773 ], [ -72.320610996922539, 42.356955828318725 ], [ -72.320786861488997, 42.357210541884292 ], [ -72.320947177988771, 42.356966900958625 ] ], [ [ -72.210748173003665, 42.423469965954034 ], [ -72.210561056202295, 42.422191312316293 ], [ -72.210576884616884, 42.423599004171074 ], [ -72.210057263517882, 42.423474229399972 ], [ -72.210212732035501, 42.421937499962802 ], [ -72.209717557683533, 42.423988247453899 ], [ -72.210241497272463, 42.42449693958396 ], [ -72.210409911461525, 42.424111958000104 ], [ -72.212137202372361, 42.424101286321452 ], [ -72.211952939092484, 42.423078579073021 ], [ -72.211267795431766, 42.423594737606834 ], [ -72.210748173003665, 42.423469965954034 ] ], [ [ -72.216552699272526, 42.41741887582937 ], [ -72.216557052113558, 42.417802792055042 ], [ -72.217593322645726, 42.417796336811918 ], [ -72.217760220812977, 42.417283371782389 ], [ -72.216552699272526, 42.41741887582937 ] ], [ [ -72.216719604889022, 42.416905912261946 ], [ -72.216551248337282, 42.417290903746192 ], [ -72.217069379433568, 42.417287677316445 ], [ -72.216719604889022, 42.416905912261946 ] ], [ [ -72.218324896534966, 42.4213752439153 ], [ -72.218317623520278, 42.420735384183089 ], [ -72.217629650833857, 42.420995636980621 ], [ -72.217796557155182, 42.420482672294753 ], [ -72.216761694027227, 42.420617101344682 ], [ -72.217288567392586, 42.421381705738156 ], [ -72.218324896534966, 42.4213752439153 ] ], [ [ -72.218295805359844, 42.418815804389503 ], [ -72.218298714371315, 42.41907174841365 ], [ -72.217951830127973, 42.418945931299433 ], [ -72.218288532934224, 42.418175944259602 ], [ -72.217596228765444, 42.418052280916797 ], [ -72.217085351584416, 42.418695369942185 ], [ -72.217445307727857, 42.419972937755126 ], [ -72.217613665977936, 42.419587945212477 ], [ -72.218131815852047, 42.419584714002539 ], [ -72.218308896097057, 42.419967552373031 ], [ -72.218824137855663, 42.419708374078553 ], [ -72.218295805359844, 42.418815804389503 ] ], [ [ -72.218459790877375, 42.418046894400128 ], [ -72.218636868800303, 42.418429732408278 ], [ -72.219147728046721, 42.417786636456356 ], [ -72.220009828449818, 42.417653266272275 ], [ -72.220167957113475, 42.41637246538663 ], [ -72.218459790877375, 42.418046894400128 ] ], [ [ -72.222114703198784, 42.405353870382498 ], [ -72.222632736167355, 42.405350618902638 ], [ -72.222455670682592, 42.404967785843624 ], [ -72.222114703198784, 42.405353870382498 ] ], [ [ -72.224858467899907, 42.403672861392948 ], [ -72.223820964299563, 42.403551409648642 ], [ -72.223825360327467, 42.403935326870148 ], [ -72.224861402785535, 42.403928806177376 ], [ -72.224858467899907, 42.403672861392948 ] ], [ [ -72.226749043244325, 42.402893048310894 ], [ -72.225713017956082, 42.402899585997893 ], [ -72.224682860708015, 42.403418004014028 ], [ -72.225031140923065, 42.403671773708403 ], [ -72.226749043244325, 42.402893048310894 ] ], [ [ -72.230124385595559, 42.411062506775281 ], [ -72.231164985352819, 42.411439845643493 ], [ -72.230987851133278, 42.411057026268097 ], [ -72.230124385595559, 42.411062506775281 ] ], [ [ -72.231293260125128, 42.407599584432148 ], [ -72.231986958562587, 42.407851137889779 ], [ -72.231809829421508, 42.407468319451567 ], [ -72.231293260125128, 42.407599584432148 ] ], [ [ -72.232496113506983, 42.407080008878857 ], [ -72.23301119204136, 42.406820766289492 ], [ -72.232661379140296, 42.406439048724529 ], [ -72.232317500835379, 42.406569218943382 ], [ -72.232496113506983, 42.407080008878857 ] ], [ [ -72.235568586501486, 42.389142941377102 ], [ -72.236260609274012, 42.389266497479078 ], [ -72.236250178163758, 42.388370688610678 ], [ -72.235561142695815, 42.388503077855624 ], [ -72.235568586501486, 42.389142941377102 ] ], [ [ -72.236933244678994, 42.387726404389426 ], [ -72.236766580076122, 42.388239400790077 ], [ -72.237799377467454, 42.387976818183986 ], [ -72.236933244678994, 42.387726404389426 ] ], [ [ -72.237424267488919, 42.385419576754643 ], [ -72.237599876048293, 42.385674415762821 ], [ -72.237769513403777, 42.385417363411491 ], [ -72.237424267488919, 42.385419576754643 ] ], [ [ -72.23811177162375, 42.3851592034801 ], [ -72.237587933797641, 42.384650633470457 ], [ -72.237592412096319, 42.385034551858624 ], [ -72.23811177162375, 42.3851592034801 ] ], [ [ -72.238489897172144, 42.387972388213079 ], [ -72.238320255890542, 42.388229441474365 ], [ -72.238665517116132, 42.388227225444048 ], [ -72.238489897172144, 42.387972388213079 ] ], [ [ -72.238899463054864, 42.393472993685023 ], [ -72.23872233234141, 42.393090184588146 ], [ -72.23837853911904, 42.393220373325079 ], [ -72.238899463054864, 42.393472993685023 ] ], [ [ -72.240596184570975, 42.376184461123835 ], [ -72.240944378657815, 42.376438184264799 ], [ -72.240939880619635, 42.376054265249174 ], [ -72.240596184570975, 42.376184461123835 ] ], [ [ -72.25126145313871, 42.387633741207502 ], [ -72.251427998546689, 42.387120723746605 ], [ -72.25073141139174, 42.386613341108436 ], [ -72.250569418933665, 42.387510275280022 ], [ -72.25126145313871, 42.387633741207502 ] ], [ [ -72.253840203863732, 42.386720996885693 ], [ -72.254371823479914, 42.387869355125389 ], [ -72.254888183659745, 42.387737985961643 ], [ -72.254171718981411, 42.385566981424972 ], [ -72.253840203863732, 42.386720996885693 ] ], [ [ -72.255035038026151, 42.443409045719484 ], [ -72.255213938527461, 42.443919795802692 ], [ -72.255550320249782, 42.443149704564895 ], [ -72.255035038026151, 42.443409045719484 ] ], [ [ -72.258959803802227, 42.439287857304166 ], [ -72.25912642286265, 42.438774835054339 ], [ -72.258600434775602, 42.43813839637312 ], [ -72.257910903403982, 42.438270917873147 ], [ -72.258959803802227, 42.439287857304166 ] ], [ [ -72.264360563478533, 42.442963583592679 ], [ -72.264178495767794, 42.442196906238195 ], [ -72.26503463524503, 42.441551316893623 ], [ -72.265198110911868, 42.440782344719402 ], [ -72.267272949522791, 42.440896519933283 ], [ -72.26846524451706, 42.439480777721393 ], [ -72.268622445490266, 42.43819991730885 ], [ -72.269308837074121, 42.437811390166431 ], [ -72.269455107095382, 42.435634732422564 ], [ -72.268211558129892, 42.43282744785391 ], [ -72.266490248234888, 42.433350844569233 ], [ -72.265981296511271, 42.434122118996818 ], [ -72.265119068563067, 42.434255832904199 ], [ -72.264952510077649, 42.434768864396041 ], [ -72.262712843987003, 42.43529564632761 ], [ -72.261346194292869, 42.436584501965847 ], [ -72.260306540212227, 42.436335409200652 ], [ -72.258938281687037, 42.437496265046001 ], [ -72.259115659377471, 42.437879038926866 ], [ -72.259455037956343, 42.437364876950355 ], [ -72.261003752447508, 42.436842727828889 ], [ -72.260321940458411, 42.437615118222233 ], [ -72.260169191994336, 42.439279879994523 ], [ -72.261577574425274, 42.441446250747305 ], [ -72.262095901253673, 42.441442821674926 ], [ -72.261930842691157, 42.442083818602178 ], [ -72.262106707604076, 42.442338616731838 ], [ -72.262449174731287, 42.442080387940294 ], [ -72.262458441685695, 42.442848212136973 ], [ -72.264360563478533, 42.442963583592679 ] ], [ [ -72.261778125819802, 42.443748580662728 ], [ -72.262119058094072, 42.443362382265612 ], [ -72.261600715517588, 42.443365811440536 ], [ -72.261778125819802, 42.443748580662728 ] ], [ [ -72.265294776118282, 42.405970717518457 ], [ -72.265811261456037, 42.405839299894637 ], [ -72.265623083097125, 42.40456073060929 ], [ -72.265277733623876, 42.404563027521377 ], [ -72.26526998728643, 42.403923168275611 ], [ -72.264394242399192, 42.4029051308774 ], [ -72.263537074044876, 42.403422749619288 ], [ -72.263550985881565, 42.404574496537684 ], [ -72.265294776118282, 42.405970717518457 ] ], [ [ -72.264551247579575, 42.430164203747388 ], [ -72.265077229224104, 42.43080061649502 ], [ -72.265595468535906, 42.430797171662064 ], [ -72.266277142494957, 42.430024748750661 ], [ -72.265218979518352, 42.428240047063149 ], [ -72.264528021691618, 42.428244637398954 ], [ -72.264879696848098, 42.428754227179212 ], [ -72.264551247579575, 42.430164203747388 ] ], [ [ -72.279302393071475, 42.435568507386272 ], [ -72.28173685534189, 42.436831819133459 ], [ -72.284501056613095, 42.436813019846618 ], [ -72.287082928375412, 42.436027511918056 ], [ -72.287740463078137, 42.433335403612716 ], [ -72.287206260158243, 42.432059241408588 ], [ -72.287296092981606, 42.425403578928673 ], [ -72.286235821620934, 42.423491097486 ], [ -72.284854012805937, 42.423500526277763 ], [ -72.28311882182625, 42.422872433822356 ], [ -72.284793620639334, 42.418637625739251 ], [ -72.284256425404067, 42.417105502912534 ], [ -72.283210657909166, 42.416344730915483 ], [ -72.283028438222857, 42.415578078389295 ], [ -72.282336036037137, 42.415454804346737 ], [ -72.283003071136719, 42.413530537704794 ], [ -72.282966608829653, 42.41058719620036 ], [ -72.282603797463679, 42.409181859295806 ], [ -72.281903550904204, 42.408418725080004 ], [ -72.282209329424859, 42.405217089776983 ], [ -72.280973717463837, 42.403049780770417 ], [ -72.27923123899582, 42.401781768135848 ], [ -72.278692745467268, 42.400121641405313 ], [ -72.279375506320193, 42.399477107072748 ], [ -72.279364462604718, 42.398581304366083 ], [ -72.278501171791532, 42.39858714779453 ], [ -72.278490140620278, 42.397691344816486 ], [ -72.279687682608383, 42.396787359264124 ], [ -72.281376254421204, 42.393704322494301 ], [ -72.281167242519899, 42.390762138853574 ], [ -72.279403013758525, 42.387702515723383 ], [ -72.278861482978712, 42.385786439903967 ], [ -72.277119522574139, 42.384518390175849 ], [ -72.27625642354414, 42.38452421678339 ], [ -72.275747983940164, 42.385295543357294 ], [ -72.275289742893392, 42.390161977876176 ], [ -72.27375638473778, 42.391836074108681 ], [ -72.273961922076438, 42.394522326420841 ], [ -72.273798672617701, 42.395291319611538 ], [ -72.273453374075856, 42.395293641060839 ], [ -72.273812769604845, 42.3964430674882 ], [ -72.273647947326324, 42.397084088171091 ], [ -72.273129984808406, 42.397087569276628 ], [ -72.273318292742076, 42.398366128539116 ], [ -72.275049575863235, 42.398738428632299 ], [ -72.275230080946656, 42.399377124998509 ], [ -72.274891034604622, 42.39989133817371 ], [ -72.273685534176892, 42.400155413901963 ], [ -72.273173807133361, 42.400670782606561 ], [ -72.271792495191448, 42.400680054674652 ], [ -72.271913592716544, 42.396455822866372 ], [ -72.270692544846142, 42.395440147398297 ], [ -72.270182390570668, 42.396083475396303 ], [ -72.270723746506661, 42.397999587453754 ], [ -72.270422100058298, 42.401585113279189 ], [ -72.269748574815353, 42.402997425197682 ], [ -72.269061007032263, 42.403257986409287 ], [ -72.269071905556373, 42.404153789109095 ], [ -72.268726558431879, 42.404156096370116 ], [ -72.268734339785723, 42.40479595534736 ], [ -72.269250808374053, 42.404664522251984 ], [ -72.268785700672069, 42.409019022145344 ], [ -72.27003660220393, 42.412466174443033 ], [ -72.26657957177666, 42.412233286147831 ], [ -72.265386198816444, 42.413521046679563 ], [ -72.265426493719033, 42.416848306022885 ], [ -72.268104214778901, 42.423997444315262 ], [ -72.268622398134426, 42.42399398585237 ], [ -72.269671233926275, 42.425010831270356 ], [ -72.271575957054793, 42.425382026339513 ], [ -72.275946099073096, 42.429576047013001 ], [ -72.278890614778661, 42.430196072602008 ], [ -72.278058407909057, 42.432761329136241 ], [ -72.279302393071475, 42.435568507386272 ] ], [ [ -72.267830677828897, 42.387268394537877 ], [ -72.26885399374514, 42.386237699082223 ], [ -72.269351625596087, 42.384570596555086 ], [ -72.269001716443512, 42.384188987485828 ], [ -72.269312701615618, 42.381371285789527 ], [ -72.268773086519857, 42.379583132235084 ], [ -72.268255267076228, 42.379586591413315 ], [ -72.267404658348397, 42.38061613186035 ], [ -72.266033084969251, 42.381393169927399 ], [ -72.2655322920929, 42.382804314356171 ], [ -72.26679180906153, 42.387019357384425 ], [ -72.267830677828897, 42.387268394537877 ] ], [ [ -72.266703359962165, 42.379724927527334 ], [ -72.267382916955299, 42.378824516125292 ], [ -72.266177786763862, 42.379088514499529 ], [ -72.266703359962165, 42.379724927527334 ] ], [ [ -72.267232807132714, 42.423363347108186 ], [ -72.267576704875367, 42.423233073106658 ], [ -72.267229699739019, 42.423107404628645 ], [ -72.267232807132714, 42.423363347108186 ] ], [ [ -72.272170775445105, 42.431649131684132 ], [ -72.270963096293087, 42.431785205977029 ], [ -72.272173903273114, 42.431905073496317 ], [ -72.272170775445105, 42.431649131684132 ] ], [ [ -72.273380015748714, 42.431641015615796 ], [ -72.2733753167077, 42.431257102915787 ], [ -72.272855508765019, 42.431132611850025 ], [ -72.27234352407892, 42.431647973023324 ], [ -72.273380015748714, 42.431641015615796 ] ], [ [ -72.273433458957882, 42.379551894749085 ], [ -72.276199871282586, 42.379917211860047 ], [ -72.277050327419985, 42.378887606225419 ], [ -72.276499515512171, 42.376203680320678 ], [ -72.275104622193751, 42.37506123925548 ], [ -72.273375551837589, 42.374816910570409 ], [ -72.272355620211158, 42.376103594136275 ], [ -72.272382190563448, 42.378279127643935 ], [ -72.273433458957882, 42.379551894749085 ] ], [ [ -72.285149010478278, 42.391630917216837 ], [ -72.28600584201584, 42.391113136095839 ], [ -72.287191998960793, 42.38931326705233 ], [ -72.287326386826663, 42.386240756839648 ], [ -72.286092561189179, 42.384201465316259 ], [ -72.285547678183207, 42.382029474971155 ], [ -72.285026662240924, 42.381777065154829 ], [ -72.284168362219305, 42.382166867854828 ], [ -72.283473152536018, 42.381787655163727 ], [ -72.282627513558495, 42.383201224333511 ], [ -72.281932301743907, 42.382822002421946 ], [ -72.281940214097432, 42.383461863690101 ], [ -72.282998099667068, 42.385246430665681 ], [ -72.284433050400139, 42.389588075239018 ], [ -72.28427946539658, 42.391124916141067 ], [ -72.285149010478278, 42.391630917216837 ] ], [ [ -72.288564819844424, 42.402486086849052 ], [ -72.289078033499521, 42.402098621527564 ], [ -72.289407387939008, 42.40081653716372 ], [ -72.288003742475809, 42.399034400712011 ], [ -72.287463447979249, 42.397246342207495 ], [ -72.286424337944027, 42.396997482902819 ], [ -72.285228477809383, 42.398029510278889 ], [ -72.285421803021151, 42.39969196460131 ], [ -72.286305800767138, 42.401349701033133 ], [ -72.288564819844424, 42.402486086849052 ] ], [ [ -72.286145090114488, 42.443968760916242 ], [ -72.286658655602963, 42.443581310285424 ], [ -72.286140312583228, 42.443584849911211 ], [ -72.286145090114488, 42.443968760916242 ] ], [ [ -72.290359631063964, 42.504602560644614 ], [ -72.29087366406749, 42.504215097286995 ], [ -72.291049818945027, 42.504469847118251 ], [ -72.294159654192697, 42.504192505635352 ], [ -72.294841771249196, 42.503419928178999 ], [ -72.293778351231623, 42.501379585954517 ], [ -72.294626934924636, 42.500093944686768 ], [ -72.294441113324197, 42.499071389716867 ], [ -72.295300939569557, 42.498681521680737 ], [ -72.295118335342252, 42.497914904277373 ], [ -72.294072708047338, 42.497282214980736 ], [ -72.294061438644547, 42.496386435627791 ], [ -72.294916395815463, 42.495612664639999 ], [ -72.293534618294345, 42.495750165961972 ], [ -72.29352818311628, 42.495238291834262 ], [ -72.291800565418043, 42.49537815297186 ], [ -72.29163727244341, 42.496147152100576 ], [ -72.290779061334334, 42.496664961602391 ], [ -72.289549368579188, 42.495137637375151 ], [ -72.28903060235713, 42.495141189963825 ], [ -72.287671179058265, 42.497070181008908 ], [ -72.287200276823356, 42.500912780185125 ], [ -72.287931967985571, 42.504107263158005 ], [ -72.288630150919403, 42.504614405651196 ], [ -72.290359631063964, 42.504602560644614 ] ], [ [ -72.296259803596584, 42.465016134369861 ], [ -72.299159207358557, 42.461924519198853 ], [ -72.301052231458968, 42.461271466601247 ], [ -72.302074578971371, 42.460112524702289 ], [ -72.302226273259535, 42.458447716236428 ], [ -72.301688316577824, 42.456915689867415 ], [ -72.300641680008582, 42.456155083719317 ], [ -72.299777604280536, 42.456161086674108 ], [ -72.299758159378854, 42.454625449408638 ], [ -72.300433185804195, 42.453340949595642 ], [ -72.30091266387538, 42.450266068729988 ], [ -72.300880213267533, 42.447706669479693 ], [ -72.299817536082315, 42.445666353593694 ], [ -72.298086437730802, 42.445422400466498 ], [ -72.296195470842335, 42.446203377059078 ], [ -72.295846670391924, 42.445949825430496 ], [ -72.294120405768695, 42.446089723103611 ], [ -72.292896435333802, 42.444946325291426 ], [ -72.292205296828726, 42.444951081706726 ], [ -72.290453431022115, 42.443043400581111 ], [ -72.289736716795488, 42.441000616884871 ], [ -72.288511327081864, 42.439729200609726 ], [ -72.288328975630321, 42.438962560852062 ], [ -72.287809074833575, 42.438838137533182 ], [ -72.287295554956231, 42.439225593750614 ], [ -72.287172214792037, 42.443193857327046 ], [ -72.28682824880832, 42.443324189220014 ], [ -72.287373704523432, 42.445496141563986 ], [ -72.287251951926009, 42.449592369158722 ], [ -72.287818225718866, 42.453427926471512 ], [ -72.289423078027198, 42.457384345383609 ], [ -72.292234727155503, 42.461076484538964 ], [ -72.293486331761017, 42.464395367989709 ], [ -72.294704248190101, 42.465026875828599 ], [ -72.296259803596584, 42.465016134369861 ] ], [ [ -72.289100850390398, 42.514593551482761 ], [ -72.289421186016355, 42.512543695629851 ], [ -72.288562733731411, 42.513061486358097 ], [ -72.289100850390398, 42.514593551482761 ] ], [ [ -72.287710597345921, 42.417081917735992 ], [ -72.28857413992813, 42.417076005246955 ], [ -72.288913167126765, 42.416561753871278 ], [ -72.288553382583615, 42.415412380113452 ], [ -72.287517158739348, 42.415419474139036 ], [ -72.287710597345921, 42.417081917735992 ] ], [ [ -72.291091232351164, 42.493975248219748 ], [ -72.290056922552495, 42.49423830219834 ], [ -72.29109443998199, 42.494231185445784 ], [ -72.291091232351164, 42.493975248219748 ] ], [ [ -72.293352043999022, 42.494983545164523 ], [ -72.293344001991073, 42.494343702351415 ], [ -72.291265755361636, 42.494102029803905 ], [ -72.293352043999022, 42.494983545164523 ] ], [ [ -72.293244294635841, 42.486409642452053 ], [ -72.293422017744291, 42.486792358690835 ], [ -72.294113614223036, 42.486787595023308 ], [ -72.293244294635841, 42.486409642452053 ] ], [ [ -72.297290444758076, 42.491884854680684 ], [ -72.299014715054199, 42.491488973955164 ], [ -72.299174665882191, 42.490464026194097 ], [ -72.299871166704435, 42.490843133828882 ], [ -72.300900509147056, 42.490196085741232 ], [ -72.300884273497843, 42.48891639944874 ], [ -72.300538463867127, 42.488918802115855 ], [ -72.30037691656733, 42.489815783560786 ], [ -72.299173045779327, 42.490336057569081 ], [ -72.297783306600806, 42.489833766849451 ], [ -72.295881325020801, 42.48984691749861 ], [ -72.295367439752084, 42.490234404663092 ], [ -72.29537388933403, 42.490746279364352 ], [ -72.296248123962968, 42.49150812134598 ], [ -72.296939771893079, 42.491503340724314 ], [ -72.297290444758076, 42.491884854680684 ] ], [ [ -72.298009889509217, 42.398325534053491 ], [ -72.298014735700264, 42.398709448769559 ], [ -72.298703751436747, 42.398576685879718 ], [ -72.299896163563332, 42.397288575462127 ], [ -72.300568954490274, 42.395876085302184 ], [ -72.300380102902835, 42.394597569948921 ], [ -72.30140625102861, 42.393822530176578 ], [ -72.30136407743592, 42.390495265582103 ], [ -72.300828340637437, 42.389091181715855 ], [ -72.300476596389075, 42.388581696967812 ], [ -72.299442431634105, 42.388716870219653 ], [ -72.298224322176793, 42.387957428851145 ], [ -72.29702075988952, 42.388349721618049 ], [ -72.296002702276539, 42.389764582629589 ], [ -72.294848964016751, 42.394123978035473 ], [ -72.295065061318951, 42.3975780210707 ], [ -72.295938003848789, 42.398339883093193 ], [ -72.298009889509217, 42.398325534053491 ] ], [ [ -72.299774647770064, 42.346735906374569 ], [ -72.300629132293551, 42.346090038038788 ], [ -72.301981672705196, 42.343904877532381 ], [ -72.302645732787354, 42.341852492398523 ], [ -72.302784140084157, 42.339163851102818 ], [ -72.301205754078836, 42.337127108633013 ], [ -72.298452371056854, 42.337658202742148 ], [ -72.297427097501867, 42.338433225985945 ], [ -72.296414684049665, 42.340232026331925 ], [ -72.296446898915278, 42.342791491267455 ], [ -72.29751096566811, 42.345087833697562 ], [ -72.298389672736747, 42.346361578611948 ], [ -72.299774647770064, 42.346735906374569 ] ], [ [ -72.301910322949752, 42.488013404660101 ], [ -72.302769952454256, 42.487623479770669 ], [ -72.303274001034268, 42.48646814721625 ], [ -72.303234923420675, 42.483396897189444 ], [ -72.302528724266367, 42.482249996114341 ], [ -72.301483282150002, 42.481617371437899 ], [ -72.300497895146194, 42.485719584373314 ], [ -72.300859921258166, 42.486996869198933 ], [ -72.301910322949752, 42.488013404660101 ] ], [ [ -72.302128220758476, 42.382682966583566 ], [ -72.304030232126337, 42.382925656428171 ], [ -72.304888419990007, 42.382535705632769 ], [ -72.305907793344602, 42.381248735622222 ], [ -72.306396249690707, 42.378941610944977 ], [ -72.30614207825397, 42.372544214105943 ], [ -72.305082123171218, 42.37063188251112 ], [ -72.303519135648898, 42.369874909381039 ], [ -72.300933686110298, 42.370148908714498 ], [ -72.299930576308242, 42.372715561189452 ], [ -72.299809777155517, 42.376811873291643 ], [ -72.300342148130923, 42.377960021585757 ], [ -72.300017991307058, 42.379626060383771 ], [ -72.301255419785207, 42.381921148744794 ], [ -72.302128220758476, 42.382682966583566 ] ], [ [ -72.30146703689492, 42.480337682354538 ], [ -72.301643167895065, 42.480592417601059 ], [ -72.301812799490435, 42.480335276895865 ], [ -72.30146703689492, 42.480337682354538 ] ], [ [ -72.302616575342782, 42.489160307793945 ], [ -72.302277269890439, 42.489674590116401 ], [ -72.302968897273246, 42.489669773310666 ], [ -72.303136919749122, 42.48928466265999 ], [ -72.302616575342782, 42.489160307793945 ] ], [ [ -72.302682086729135, 42.480713165429762 ], [ -72.303032734361466, 42.481094662992128 ], [ -72.303202361646854, 42.48083752027501 ], [ -72.302682086729135, 42.480713165429762 ] ], [ [ -72.306480984171841, 42.49386858674562 ], [ -72.307180839305985, 42.494503586639006 ], [ -72.30664572573825, 42.493227534561825 ], [ -72.306304796605289, 42.493613859780965 ], [ -72.305784410271926, 42.493489519359706 ], [ -72.305779509551272, 42.493105614057839 ], [ -72.306642455105901, 42.492971597704972 ], [ -72.306810463958669, 42.492586482034014 ], [ -72.304732223647562, 42.492345052195709 ], [ -72.304898610738476, 42.491831970751903 ], [ -72.303332624584243, 42.49107501759385 ], [ -72.303528340520629, 42.492865371350824 ], [ -72.305099270031135, 42.494006226770281 ], [ -72.306480984171841, 42.49386858674562 ] ], [ [ -72.304645765534957, 42.499128582934794 ], [ -72.305164563641398, 42.499124960068201 ], [ -72.304975310056207, 42.497846485256403 ], [ -72.30446304651673, 42.498361980431199 ], [ -72.304645765534957, 42.499128582934794 ] ], [ [ -72.304609875876039, 42.496313280326298 ], [ -72.304787695779922, 42.496695978034971 ], [ -72.304955725862143, 42.496310865447278 ], [ -72.304609875876039, 42.496313280326298 ] ], [ [ -72.304773011235952, 42.49554426286177 ], [ -72.304950829962507, 42.495926960396758 ], [ -72.305807281089827, 42.495281076917266 ], [ -72.305458170841575, 42.495027557600807 ], [ -72.304773011235952, 42.49554426286177 ] ], [ [ -72.306350569170078, 42.497196973717152 ], [ -72.305828519440396, 42.496944665312895 ], [ -72.305665393320865, 42.497713683985708 ], [ -72.306360378252933, 42.497964783401208 ], [ -72.306350569170078, 42.497196973717152 ] ], [ [ -72.30880434797335, 42.499739375538205 ], [ -72.309135451718106, 42.498585234389459 ], [ -72.30844536622611, 42.498718056404428 ], [ -72.306534942961221, 42.498091541728641 ], [ -72.306541483911175, 42.498603414736785 ], [ -72.30723648212512, 42.498854508810489 ], [ -72.307068459187363, 42.499239624462867 ], [ -72.307761828755147, 42.499362747118731 ], [ -72.307406140012816, 42.498597361107173 ], [ -72.30792493359418, 42.498593725816058 ], [ -72.30880434797335, 42.499739375538205 ] ], [ [ -72.30750375994414, 42.492709606459073 ], [ -72.307857778907547, 42.493347024962965 ], [ -72.308025781344938, 42.492961907558623 ], [ -72.30750375994414, 42.492709606459073 ] ], [ [ -72.308864123020513, 42.490908347807952 ], [ -72.3085117466008, 42.490398900480479 ], [ -72.308518302782986, 42.49091077441792 ], [ -72.308864123020513, 42.490908347807952 ] ], [ [ -72.309413007519296, 42.479770219009616 ], [ -72.309065608430103, 42.47964467843066 ], [ -72.308897647771175, 42.480029798694815 ], [ -72.309413007519296, 42.479770219009616 ] ], [ [ -72.310116019914403, 42.480661141048792 ], [ -72.310461783949933, 42.480658709638327 ], [ -72.310107809842194, 42.480021297013195 ], [ -72.310116019914403, 42.480661141048792 ] ], [ [ -72.314784433923407, 42.453880227696395 ], [ -72.317355034671479, 42.45219825688028 ], [ -72.31803299190554, 42.451169592489727 ], [ -72.318161038861419, 42.447713183079543 ], [ -72.31675223116838, 42.445675478032285 ], [ -72.314833425635243, 42.444281273076129 ], [ -72.314303531501722, 42.443389149957284 ], [ -72.312398014638475, 42.443018663461963 ], [ -72.312217009122989, 42.442380032200006 ], [ -72.31134983583749, 42.442130181950553 ], [ -72.309829295962132, 42.444828497485609 ], [ -72.31107821674658, 42.447891263611339 ], [ -72.310913638396798, 42.448532329608298 ], [ -72.311436952218401, 42.448912587949032 ], [ -72.31110286442275, 42.44981081094636 ], [ -72.311446815628997, 42.44968040676725 ], [ -72.312493475014463, 42.450440915970347 ], [ -72.313026697070796, 42.451588985265538 ], [ -72.312865422585858, 42.452485992820414 ], [ -72.313556641959011, 42.452481112428089 ], [ -72.31391709259843, 42.453630397498536 ], [ -72.314784433923407, 42.453880227696395 ] ], [ [ -72.31536640659391, 42.33830739566217 ], [ -72.316225570187839, 42.338045329486924 ], [ -72.317416485056427, 42.33675701993927 ], [ -72.317890946753764, 42.333426038332668 ], [ -72.319245933723693, 42.331496615225333 ], [ -72.320743434371877, 42.327262425272764 ], [ -72.320207802901365, 42.325858411882038 ], [ -72.32014810414681, 42.321251369358855 ], [ -72.3190687134896, 42.317803462700816 ], [ -72.318022514419425, 42.316915016377877 ], [ -72.316245361793577, 42.312832118787554 ], [ -72.314512892800707, 42.312204483840375 ], [ -72.312970955968524, 42.312983314994682 ], [ -72.311934770143793, 42.312862655192326 ], [ -72.311939694239499, 42.313246576607227 ], [ -72.311253274983272, 42.31350739506891 ], [ -72.31057832052791, 42.314664025969741 ], [ -72.310602901171421, 42.316583632298993 ], [ -72.311171040009995, 42.320547166178919 ], [ -72.311873950192222, 42.321566084535171 ], [ -72.312269755098313, 42.325530826803586 ], [ -72.31350492529441, 42.327697837488849 ], [ -72.313012191642571, 42.329621098556778 ], [ -72.312332169615161, 42.330393815864959 ], [ -72.31164392477308, 42.330526662388905 ], [ -72.311671826561948, 42.332702208581118 ], [ -72.313771180251067, 42.334991093929801 ], [ -72.314489116819331, 42.33716175138791 ], [ -72.31536640659391, 42.33830739566217 ] ], [ [ -72.318064481882999, 42.453601015061757 ], [ -72.318754054226901, 42.453468133908252 ], [ -72.318920225008114, 42.452955027085196 ], [ -72.319782594141614, 42.45282091095924 ], [ -72.320294363315227, 42.452305341636745 ], [ -72.320287715710577, 42.451793463286471 ], [ -72.319249238896745, 42.451672873299884 ], [ -72.319069798716313, 42.451162223825918 ], [ -72.318381910223181, 42.451423076584256 ], [ -72.318390200391974, 42.452062924708677 ], [ -72.31890695204099, 42.451931270327194 ], [ -72.318910270242426, 42.452187209541563 ], [ -72.317536120269494, 42.452836878496498 ], [ -72.318064481882999, 42.453601015061757 ] ], [ [ -72.318488522407392, 42.312944149674927 ], [ -72.318468667621232, 42.31140846485895 ], [ -72.31795140860423, 42.311412147772792 ], [ -72.317442411782423, 42.312055697165498 ], [ -72.317626403101698, 42.312950286718127 ], [ -72.317802133412727, 42.313205007267541 ], [ -72.318488522407392, 42.312944149674927 ] ], [ [ -72.369600103146936, 42.418412161466769 ], [ -72.369432674148868, 42.418797375782823 ], [ -72.369949047378853, 42.418665491342423 ], [ -72.369943762690824, 42.418281581617606 ], [ -72.368729513885029, 42.417906802028725 ], [ -72.369600103146936, 42.418412161466769 ] ], [ [ -72.369645887911091, 42.421739377922385 ], [ -72.370172857386351, 42.422375311395456 ], [ -72.371191543588225, 42.421087775442992 ], [ -72.371350145596921, 42.420062709643688 ], [ -72.370826710301927, 42.419682720926481 ], [ -72.370310330592076, 42.419814609271299 ], [ -72.370320904742329, 42.420582428367084 ], [ -72.369800993964148, 42.42045837472407 ], [ -72.369645887911091, 42.421739377922385 ] ], [ [ -72.372712897785874, 42.431186911083309 ], [ -72.372025448344814, 42.431448085464559 ], [ -72.371863297042822, 42.432217210456585 ], [ -72.372550755521999, 42.431956037092711 ], [ -72.372903322247709, 42.432465296051191 ], [ -72.372712897785874, 42.431186911083309 ] ], [ [ -72.372748249616492, 42.433746299676379 ], [ -72.372393910061518, 42.433109070990739 ], [ -72.372228225754895, 42.433622257393893 ], [ -72.372748249616492, 42.433746299676379 ] ], [ [ -72.373086681021121, 42.433231802734674 ], [ -72.372910394070445, 42.432977173727011 ], [ -72.372741179021261, 42.433234422087359 ], [ -72.373086681021121, 42.433231802734674 ] ], [ [ -72.379512308425674, 42.435614573740324 ], [ -72.379856041047717, 42.435483964848956 ], [ -72.379998497317743, 42.43330716726441 ], [ -72.379816836424268, 42.432668640920298 ], [ -72.378945969027569, 42.432163360503921 ], [ -72.378459750499715, 42.434470763184777 ], [ -72.379328864785776, 42.434848077740739 ], [ -72.379512308425674, 42.435614573740324 ] ], [ [ -72.379286122333369, 42.431776814499749 ], [ -72.379453525651783, 42.431391587071886 ], [ -72.378937068262999, 42.431523513736153 ], [ -72.379286122333369, 42.431776814499749 ] ], [ [ -72.380686204569855, 42.445460268712729 ], [ -72.38034063600692, 42.445462910860421 ], [ -72.38051698774818, 42.445717527703891 ], [ -72.380686204569855, 42.445460268712729 ] ] ] } }
]
}
